{"type":"FeatureCollection","features":[{"type":"Feature","properties":{},"geometry":{"type":"Polygon","coordinates":[[[180,90],[-180,90],[-180,-90],[180,-90],[180,90]],[[-89.57150900000002,36.552569],[-89.571241,36.547343],[-89.570071,36.544387],[-89.565804,36.536988],[-89.5640495779805,36.533276080005706],[-89.560344,36.525436],[-89.558349,36.522099],[-89.554321,36.517022],[-89.542955,36.504957],[-89.539232,36.497934],[-89.498036,36.497887],[-89.492537,36.497775],[-89.485427,36.497491],[-89.482474,36.502131],[-89.477186,36.50707],[-89.47246,36.513741],[-89.468668,36.521291],[-89.465888,36.529946],[-89.465445,36.536163],[-89.467761,36.546847],[-89.473341,36.559918],[-89.479093,36.568206],[-89.4808134475126,36.5697018335318],[-89.480893,36.56977100000001],[-89.484836,36.571821],[-89.500076,36.576305],[-89.514468,36.577803],[-89.5181810796452,36.578587885754],[-89.518702,36.578698],[-89.52233800000002,36.58018],[-89.525804819365,36.5808191638372],[-89.527583,36.581147],[-89.542459,36.580566],[-89.546113,36.579989],[-89.55264,36.577178],[-89.5537271684955,36.5764469694683],[-89.558089,36.573514],[-89.563185,36.568749],[-89.566817,36.564216],[-89.569807,36.558119],[-89.5701143232044,36.557116859116],[-89.57150900000002,36.552569]],[[-89.41727500000002,36.499011],[-89.403913,36.499141],[-89.391044,36.499079],[-89.38179200000002,36.500062],[-89.380085,36.500416],[-89.356593,36.502195],[-89.34605300000001,36.50321],[-89.300284,36.507147],[-89.282298,36.506782],[-89.279091,36.506511],[-89.2563432316657,36.5062148978768],[-89.211409,36.50563],[-89.163429,36.504526],[-89.163224,36.504522],[-89.1602570254511,36.5044622081409],[-89.120002076277,36.5036509715733],[-89.119805,36.503647],[-89.117537,36.503603],[-89.090146,36.503392],[-89.0724069982356,36.5032512923645],[-89.072118,36.503249],[-89.058871,36.503157],[-89.034649,36.502964],[-89.010439,36.50271],[-89.006825,36.502684],[-89.000063,36.502633],[-88.964471,36.502191],[-88.9641660287314,36.5021911267564],[-88.9198414415829,36.5022095495617],[-88.89951,36.502218],[-88.8993449449784,36.5022123263371],[-88.8945550859053,36.5020476779345],[-88.8862770016235,36.5017631239774],[-88.884557,36.501704],[-88.8757890374701,36.5023656993691],[-88.874725,36.502446],[-88.8716099279743,36.5024823563607],[-88.8715450167168,36.5024831139474],[-88.859294,36.50262609696],[-88.8552560763571,36.5026732240271],[-88.8435621254683,36.502809705461],[-88.8365448107249,36.5028916053413],[-88.834865800811,36.5029112012574],[-88.834626,36.502914],[-88.8273011555617,36.5028524305169],[-88.827012,36.50285],[-88.8167651860365,36.5028152435007],[-88.799594,36.502757],[-88.747523,36.502834],[-88.7283605050387,36.5027318570369],[-88.71526673663772,36.5026620625605],[-88.71525500000001,36.502662],[-88.7005489366071,36.5025481490602],[-88.6614646923627,36.5022455678855],[-88.661133,36.502243],[-88.577283,36.50194],[-88.545192,36.501814],[-88.5448912453585,36.5018099850588],[-88.516427,36.50143],[-88.5163456859488,36.5014314866172],[-88.51227,36.501506],[-88.51192,36.501457],[-88.48921,36.501068],[-88.4890752146435,36.5010676761135],[-88.472564,36.501028],[-88.452543,36.500872],[-88.450161,36.501101],[-88.4301064258183,36.500896307],[-88.41636000000001,36.50075600000001],[-88.330799,36.500531],[-88.3303916636552,36.5005270130211],[-88.3260576320538,36.5004845918309],[-88.325895,36.500483],[-88.3209280465888,36.5004333402031],[-88.320794,36.500432],[-88.3093239605968,36.5003197997965],[-88.1760579266606,36.4990161882225],[-88.1377328246476,36.4986412911457],[-88.127378,36.49854],[-88.0882235460298,36.4977951611159],[-88.0532916180151,36.4971306477427],[-88.053205,36.497129],[-88.050466,36.500053],[-88.045304,36.504081],[-88.039481,36.510408],[-88.037822,36.51385],[-88.037329,36.517830000000004],[-88.03783,36.521015],[-88.03727000000002,36.523783],[-88.035854,36.525912],[-88.034132,36.53112],[-88.032489,36.540662000000005],[-88.033802,36.551733],[-88.035625,36.561736],[-88.039625,36.572783],[-88.041196,36.584123],[-88.045127,36.602939],[-88.055738,36.630475],[-88.0556537762859,36.6337653816661],[-88.055604,36.63571],[-88.057042,36.64054],[-88.05858,36.643315],[-88.064401,36.650854],[-88.06820800000001,36.659747],[-88.070532,36.678118],[-88.044772,36.677983],[-88.011792,36.677025],[-87.9123130699728,36.6685273222729],[-87.9119412773028,36.6684955630422],[-87.9020037592458,36.6676466815169],[-87.872062,36.665089],[-87.849567,36.663701],[-87.853204,36.633247],[-87.8020980807962,36.6346156560678],[-87.8018430728621,36.6346224853776],[-87.7975010779853,36.6347387673607],[-87.7967639070715,36.6347585093683],[-87.744768,36.636151],[-87.694191328389,36.6370710817038],[-87.64115,36.638036],[-87.564928,36.639113],[-87.563052,36.639113],[-87.47567600179872,36.6402412519069],[-87.4754637047213,36.6402439932156],[-87.4608982060744,36.6404320717722],[-87.45162842167721,36.6405517688531],[-87.436509,36.640747],[-87.4363256493118,36.6407517830615],[-87.4363215449599,36.6407518901315],[-87.4262069499773,36.641015749131],[-87.425009,36.641047],[-87.41430900000002,36.641047],[-87.41429597091181,36.6410470769839],[-87.4094478325022,36.64107572278841],[-87.398353641194,36.6411412741421],[-87.3934940515302,36.6411699876077],[-87.3862834592206,36.6412125922531],[-87.3627626139486,36.64135156797501],[-87.3558691509244,36.6413922988241],[-87.347796,36.64144],[-87.3476622542839,36.6414425544884],[-87.344131,36.64151],[-87.3392306405624,36.6415296405623],[-87.335979533755,36.6415426709465],[-87.3149492444387,36.6416269600103],[-87.2855869989485,36.6417446434214],[-87.281506,36.641761],[-87.278398,36.641718],[-87.2752156257281,36.6417307323955],[-87.2483624527813,36.6418381695445],[-87.247655,36.641841],[-87.231037,36.641888],[-87.23053,36.641895],[-87.2035604632039,36.642016131156],[-87.1979612531896,36.6420412794849],[-87.1977588216232,36.6420421886873],[-87.1743840726663,36.6421471741894],[-87.1679975113863,36.642175858833],[-87.1509571557252,36.64225239399921],[-87.114976,36.642414],[-87.0608458150142,36.6432171572868],[-87.011522,36.643949],[-86.9874650905764,36.6444776426698],[-86.9808875416196,36.6446221821441],[-86.9197909615982,36.6459647593893],[-86.906583,36.646255],[-86.906023,36.646302],[-86.854268,36.646884],[-86.8540381710266,36.6468875487257],[-86.8540255298461,36.6468877439147],[-86.833155,36.64721],[-86.818405,36.647639],[-86.816186,36.647722],[-86.813037,36.647647],[-86.7632948135703,36.6489071684793],[-86.75892,36.649018],[-86.713786,36.649341],[-86.6991175660171,36.6497188017766],[-86.6790728306451,36.6502350761549],[-86.6530177649191,36.6509061532538],[-86.606394,36.652107],[-86.605042,36.652125],[-86.5942278329154,36.6523829224575],[-86.589906,36.652486],[-86.5779334371017,36.6436498275454],[-86.5714468167198,36.6388624735904],[-86.5711880585072,36.6386715009298],[-86.5711861865942,36.6386701193922],[-86.567263542641,36.6357750702083],[-86.564143,36.633472],[-86.5639157484191,36.6335518059594],[-86.5638935684764,36.6335595950872],[-86.5554385871129,36.6365288061131],[-86.551292,36.637985],[-86.5503179106048,36.6433605886495],[-86.550056796241,36.6448015687248],[-86.550054,36.644817],[-86.5457245615894,36.6442149313821],[-86.543388,36.64389],[-86.543777,36.640536],[-86.536280306143,36.6430155347204],[-86.507771,36.652445],[-86.4739178412557,36.6516805037385],[-86.473497,36.651671],[-86.473413,36.651676],[-86.47219,36.651763],[-86.468497,36.651841],[-86.4596729894085,36.651648677223],[-86.4113861435174,36.650596246449304],[-86.4110524007623,36.6505889723948],[-86.374991,36.649803],[-86.373784,36.650126],[-86.359073,36.649845],[-86.333051,36.648778],[-86.2961854761252,36.6455998415201],[-86.293357,36.645356],[-86.2644201069219,36.6435415008343],[-86.222151,36.640891],[-86.21908100000002,36.64082400000001],[-86.21641,36.640595],[-86.216183,36.640527],[-86.2054686100012,36.6397833130926],[-86.204859,36.639741],[-86.197573,36.639363],[-86.1650459242246,36.6378116000666],[-86.12811632196,36.6360502187826],[-86.0943348700601,36.634438990568],[-86.081944,36.633848],[-86.080666,36.63394],[-86.038366,36.630804],[-86.033139,36.630413],[-86.03277,36.630367],[-86.0029728589817,36.6294475701586],[-85.9791244773022,36.6287116970837],[-85.9764138326519,36.6286280565901],[-85.9758456222591,36.6286105237137],[-85.97292144864672,36.6285202945041],[-85.959981,36.628121],[-85.9207280166585,36.6260795932796],[-85.9194944925774,36.6260154421213],[-85.873857,36.623642],[-85.832172,36.622046],[-85.8319733623593,36.6220484083568],[-85.80149,36.622418],[-85.788645,36.621846],[-85.7886129951215,36.6218452013294],[-85.74521923793591,36.6207623252233],[-85.731862,36.620429],[-85.67778900000002,36.618157],[-85.6659160260511,36.6179327981655],[-85.6653476268401,36.6179220648693],[-85.5870608388491,36.6164437459949],[-85.552017,36.61578200000001],[-85.551483,36.615727],[-85.5085902717238,36.615228974183],[-85.5022906580215,36.6151558296108],[-85.488353,36.614994],[-85.4364330342016,36.6185230953912],[-85.430123,36.618952],[-85.4133525674138,36.6196506006095],[-85.334124,36.622951],[-85.324654,36.62455],[-85.300402,36.624437],[-85.296073,36.625824],[-85.2959488756198,36.6258382676941],[-85.290627,36.62645],[-85.2763728942462,36.6265106430779],[-85.276289,36.626511],[-85.2132853332751,36.6257222570363],[-85.20382713946981,36.6256038498991],[-85.19537200000002,36.625498],[-85.1881668003213,36.6252791084093],[-85.1862695907309,36.6252214718074],[-85.17013878100151,36.624731423126],[-85.096128,36.622483],[-85.08641500000002,36.621913],[-85.024627,36.619354],[-84.986448,36.616668],[-84.97487505762221,36.6155518237457],[-84.943948,36.612569],[-84.9125839367586,36.6103067351843],[-84.859738,36.606495],[-84.859759,36.606428],[-84.843091,36.605127],[-84.803744,36.604265],[-84.7853995566039,36.6033748414415],[-84.785341,36.603372],[-84.7784559169908,36.6032090178664],[-84.6422164648345,36.5999839882544],[-84.624939,36.599575],[-84.6051908837286,36.5987788081752],[-84.5624024129033,36.5970536901842],[-84.543138,36.596277],[-84.5209215590057,36.5964832220564],[-84.49993800000001,36.596678],[-84.4501090531875,36.5961552851764],[-84.442837,36.596079],[-84.4391026675163,36.5959876979953],[-84.43910118148692,36.5959876616628],[-84.4359357692355,36.5959102693884],[-84.4349143318087,36.5958852959065],[-84.4179938682549,36.5954716015581],[-84.271176,36.591882],[-84.261333,36.591981],[-84.227332,36.592181],[-84.22719365346312,36.5921799356786],[-84.2268309526126,36.5921771453646],[-84.20131585539272,36.5919808537593],[-84.1976141739386,36.591952376149],[-84.14910839829,36.5915792136843],[-84.1447322813148,36.5915455475368],[-84.127503,36.591413],[-84.1261214798873,36.5913950658884],[-84.10464323412991,36.5911162474669],[-84.1040616162483,36.591108697233],[-84.0509455518344,36.590419174569],[-84.0242885850685,36.5900731289246],[-84.0212183278856,36.5900332725848],[-83.98784200000001,36.5896],[-83.98761095068281,36.5895922860725],[-83.9307607839439,36.5876942581124],[-83.894421,36.586481],[-83.8404634007862,36.5851500281398],[-83.789017,36.583881],[-83.6907980433735,36.5825821114247],[-83.690714,36.582581],[-83.688814,36.584382],[-83.687514,36.587182],[-83.68301400000001,36.592182],[-83.679514,36.594082],[-83.677114,36.596582],[-83.675614,36.598582],[-83.675395,36.600784],[-83.674614,36.603082],[-83.6738978357588,36.6038459085239],[-83.673114,36.604682],[-83.665614,36.605782],[-83.663614,36.606782],[-83.65771400000001,36.611782],[-83.649513,36.616683],[-83.648314,36.622683],[-83.645213,36.624183],[-83.639813,36.624783],[-83.635013,36.622883],[-83.628913,36.624083],[-83.625013,36.625183],[-83.619913,36.627983],[-83.616413,36.631383],[-83.614513,36.633983],[-83.607913,36.637083],[-83.605613,36.637783],[-83.604313,36.637683],[-83.603013,36.636883],[-83.600432,36.637849],[-83.594297,36.640746],[-83.589856,36.641378],[-83.587295,36.642997],[-83.585956,36.643756],[-83.584512,36.641384],[-83.5842272676923,36.6413998184615],[-83.577312,36.641784],[-83.57474900000001,36.644218],[-83.569175,36.645661],[-83.565406,36.647782],[-83.562612,36.651284],[-83.554112,36.653784],[-83.547312,36.654484],[-83.541812,36.656584],[-83.53311200000002,36.661884],[-83.533012,36.663284],[-83.531912,36.664984],[-83.529612,36.666184],[-83.527112,36.665985],[-83.516011,36.667585],[-83.511711,36.669085],[-83.506911,36.668685],[-83.501411,36.669085],[-83.499911,36.670185],[-83.498011,36.670485],[-83.493911,36.670085],[-83.48891,36.667685],[-83.48261,36.666185],[-83.466483,36.6647],[-83.4610151191699,36.6648782480975],[-83.460808,36.664885],[-83.458009,36.665785],[-83.454709,36.664785],[-83.44810800000002,36.665285],[-83.440808,36.666885],[-83.436508,36.666185],[-83.431708,36.666485],[-83.423707,36.667385],[-83.419507,36.668486],[-83.411807,36.670786],[-83.395806,36.676786],[-83.39490600000002,36.677586],[-83.395607,36.678987],[-83.395306,36.679486],[-83.389306,36.684986],[-83.386099,36.686589],[-83.367505,36.692686],[-83.364005,36.694586],[-83.362105,36.694786],[-83.360205,36.693586],[-83.359205,36.693586],[-83.356405,36.694686],[-83.354606,36.696153],[-83.353613,36.696699],[-83.350805,36.697386],[-83.35046867873301,36.6976917466063],[-83.349705,36.698386],[-83.3477428253244,36.6992105626082],[-83.342804,36.701286],[-83.315703,36.708187],[-83.313003,36.709087],[-83.311403,36.710287],[-83.307103,36.711387],[-83.287802,36.713787],[-83.287095338238,36.7139440359471],[-83.286902,36.713987],[-83.285702,36.715187],[-83.275501,36.717987],[-83.272501,36.717787],[-83.269301,36.718487],[-83.263601,36.720987],[-83.2555,36.721787],[-83.2463,36.725287],[-83.238499,36.727087],[-83.236399,36.726887],[-83.2284377393701,36.7290229479739],[-83.219999,36.731287],[-83.199698,36.737487],[-83.1959384476483,36.7389610452271],[-83.194597,36.739487],[-83.175696,36.739587],[-83.167396,36.739187],[-83.161496,36.739887],[-83.156696,36.742187],[-83.14609500000002,36.741788],[-83.136395,36.743088],[-83.13625980901331,36.7433132110677],[-83.134294,36.746588],[-83.130994,36.749788],[-83.127833,36.750828],[-83.128272,36.75637],[-83.128813,36.757864],[-83.126719,36.761],[-83.125728,36.761276],[-83.12565500000001,36.761407],[-83.12566565390271,36.7614116710383],[-83.1262512148404,36.7616684011416],[-83.1288162583041,36.7627930046303],[-83.132477,36.764398],[-83.132286,36.76561],[-83.131245,36.767105],[-83.131088,36.768379],[-83.128894,36.76988800000001],[-83.131127,36.771169],[-83.132685,36.771528],[-83.131701,36.773596],[-83.130119,36.773866],[-83.128987,36.775784],[-83.13118,36.778835],[-83.132253,36.781611],[-83.133244,36.783213],[-83.133231,36.784585],[-83.131782,36.785391],[-83.129127,36.785496],[-83.123341,36.786654],[-83.119144,36.789531],[-83.114693,36.796088],[-83.110793,36.800388],[-83.108029,36.802181],[-83.103092,36.806689],[-83.09849200000001,36.814289],[-83.098892,36.822989],[-83.099792,36.824889],[-83.10169200000001,36.826689],[-83.10205006042,36.8280317265751],[-83.102092,36.828189],[-83.101792,36.829089],[-83.098892,36.831789],[-83.091291,36.834389],[-83.0909314089172,36.8346391503185],[-83.088991,36.835989],[-83.086991,36.838189],[-83.07969,36.840589],[-83.07519,36.840889],[-83.07379000000002,36.844889],[-83.07559,36.850589],[-83.07274192,36.85438644],[-83.07259,36.854589000000004],[-83.06929000000001,36.853589],[-83.066189,36.851889],[-83.063989,36.851689],[-83.06048900000002,36.853789],[-83.052489,36.851989],[-83.047589,36.851789],[-83.044288,36.852989],[-83.042188,36.854389],[-83.026887,36.855489],[-83.025887,36.855289],[-83.024387,36.851689],[-83.021887,36.849989],[-83.012587,36.847289],[-83.009222,36.847295],[-83.006086,36.847889],[-83.003786,36.851789],[-83.00325295246792,36.8522659839376],[-82.998376,36.85663],[-82.988707,36.859137],[-82.979227,36.859693],[-82.973395,36.859097],[-82.971934,36.857767],[-82.970253,36.857686],[-82.960955,36.862536],[-82.951685,36.866152],[-82.9491371332904,36.8663547532819],[-82.937573,36.867275],[-82.92241,36.873925],[-82.911824,36.874243],[-82.91169,36.874248],[-82.910315,36.874055],[-82.907774,36.874706],[-82.907276,36.875643],[-82.908004,36.877233],[-82.907981,36.878749],[-82.906325,36.87974],[-82.895445,36.882145],[-82.8951613454929,36.8822571631815],[-82.890028,36.884287],[-82.887627,36.88689],[-82.884626,36.888477],[-82.879492,36.889085],[-82.878569,36.889585],[-82.877862,36.891843],[-82.8782081655467,36.8927955121479],[-82.878639,36.893981],[-82.876438,36.896238],[-82.873213,36.897263],[-82.870068,36.901735],[-82.872561,36.903376],[-82.877473,36.90796000000001],[-82.876215,36.910218],[-82.8744623576499,36.9117140002996],[-82.873777,36.912299],[-82.872136,36.913456],[-82.867116,36.917965],[-82.865192,36.920923],[-82.863468,36.922308],[-82.861943,36.924236],[-82.860032,36.925241],[-82.858635,36.927785],[-82.857965,36.929529],[-82.858461,36.932717],[-82.858784,36.933065],[-82.860537,36.937439],[-82.861684,36.939316],[-82.861282,36.944848],[-82.860633,36.94584],[-82.859969,36.949074],[-82.856099,36.952471],[-82.855705,36.953808],[-82.858443,36.954036],[-82.860534,36.956015],[-82.862866,36.957765],[-82.864211,36.957983],[-82.86540400000001,36.958084],[-82.867358,36.963182],[-82.87023,36.965498],[-82.870274,36.965993],[-82.86946308471781,36.9720796959173],[-82.869183,36.974182],[-82.868455,36.976481],[-82.867535,36.977518],[-82.866689,36.978052],[-82.866019,36.978272],[-82.864909,36.97901],[-82.862926,36.979975],[-82.860561,36.978265],[-82.857936,36.978276],[-82.856768,36.979095],[-82.856417,36.982216],[-82.853729,36.985178],[-82.852614,36.984963],[-82.851397,36.984497],[-82.849429,36.983479],[-82.845002,36.983812],[-82.841252,36.986858000000005],[-82.840051,36.987113],[-82.838549,36.987027],[-82.836008,36.988837],[-82.833843,36.991973],[-82.830802,36.993445],[-82.829125,36.997541],[-82.830588,37.000945],[-82.829961,37.003555],[-82.828592,37.005707],[-82.825224,37.006279],[-82.822684,37.004128],[-82.821798,37.00438],[-82.819715,37.006212],[-82.81800600000001,37.006161],[-82.815748,37.007196],[-82.813579,37.00532],[-82.800531,37.007944],[-82.797487,37.009654],[-82.796187,37.008502],[-82.79569500000001,37.006702],[-82.794824,37.005899],[-82.793441,37.005491],[-82.79089,37.00676],[-82.790462,37.007263],[-82.7894652455106,37.0077955724717],[-82.789092,37.007995],[-82.788897,37.00816],[-82.782144,37.008242],[-82.778386,37.012521],[-82.77736800000001,37.015279],[-82.7743562471201,37.0155151629299],[-82.771795,37.015716],[-82.767083,37.020935],[-82.766408,37.023106],[-82.759175,37.027333],[-82.754051,37.026587],[-82.751852,37.025624],[-82.750715,37.024107],[-82.747981,37.025214],[-82.74556200000002,37.029839],[-82.743684,37.041397],[-82.742454,37.04298],[-82.733603,37.044525],[-82.731722,37.043447],[-82.726279,37.042098],[-82.72509517249752,37.0425972499372],[-82.724714,37.042758],[-82.722472,37.045101],[-82.723279,37.047616],[-82.723128,37.052436],[-82.72225400000002,37.05794800000001],[-82.723904,37.062542],[-82.726312,37.06687],[-82.72702200000002,37.073019],[-82.7248575464057,37.0746752200633],[-82.723747,37.075525],[-82.721690345549,37.0751923205016],[-82.721676,37.07519],[-82.718353,37.075706],[-82.71674,37.07722],[-82.717204,37.079544],[-82.718183,37.080679],[-82.720597,37.081833],[-82.72304000000001,37.084992],[-82.724954,37.091905],[-82.724358,37.09299],[-82.722179,37.094309],[-82.721617,37.101276000000006],[-82.721941,37.105689],[-82.726294,37.111852],[-82.7264401572135,37.1148062616125],[-82.726449,37.114985],[-82.726201,37.115882],[-82.722097,37.120168],[-82.718334,37.122267],[-82.716334,37.122093],[-82.70787,37.125488],[-82.695667,37.13151400000001],[-82.684601,37.135835],[-82.679428,37.135575],[-82.676765,37.134965],[-82.6743550722579,37.1365665546542],[-82.67153,37.138444],[-82.66771700000001,37.141949],[-82.662449,37.143865000000005],[-82.657468,37.145024],[-82.65476000000001,37.150601],[-82.6535640843278,37.1511725066182],[-82.653268,37.151314],[-82.651646,37.151908],[-82.6358494537563,37.1539581659753],[-82.633493,37.154264],[-82.6328723246064,37.1548884938261],[-82.6328527306302,37.1549082083456],[-82.624878,37.162932],[-82.617423,37.168129],[-82.60829,37.173047],[-82.6043338658523,37.1745213832971],[-82.597447,37.177088],[-82.592766,37.180391],[-82.593232,37.18206],[-82.592451,37.182847],[-82.586718,37.185623],[-82.5862913798674,37.1857816717828],[-82.578988,37.188498],[-82.5653752160821,37.1960922172527],[-82.565329,37.196118],[-82.558178,37.199606],[-82.5538643292855,37.2028191532953],[-82.553835,37.202841],[-82.550372,37.204458],[-82.545804,37.20307],[-82.541302,37.20653],[-82.536627,37.20692],[-82.5340042529309,37.2080846845527],[-82.531576,37.209163],[-82.532051,37.210808],[-82.531787,37.212097],[-82.528746,37.21374200000001],[-82.524464,37.214957],[-82.520117,37.212906],[-82.5134052917441,37.2166858109942],[-82.509431,37.218924],[-82.508062,37.220964],[-82.50824998130241,37.2219180051095],[-82.508342,37.222385],[-82.507895,37.222727],[-82.498858,37.227044],[-82.496308,37.227562],[-82.495243,37.225606],[-82.491486,37.225086],[-82.4905938397745,37.2256532441274],[-82.487219,37.227799],[-82.487317,37.230578],[-82.48643900000002,37.231204],[-82.47327500000002,37.235569],[-82.463073,37.238292],[-82.457016,37.238288],[-82.45199800000002,37.242559],[-82.449164,37.243908],[-82.435728,37.246491],[-82.431022,37.246773],[-82.418085,37.251331],[-82.3860983414952,37.2595195530069],[-82.385663,37.259631],[-82.383285,37.260154],[-82.3794587766288,37.2600087293369],[-82.376595,37.2599],[-82.364535,37.264415],[-82.35534300000002,37.26522],[-82.350948,37.26707700000001],[-82.342068,37.274109],[-82.341849,37.280886],[-82.336942,37.279737],[-82.33157,37.282211],[-82.324619,37.28318],[-82.318957,37.287524],[-82.317395,37.290975],[-82.317083,37.293635],[-82.316028,37.294879],[-82.3147169192283,37.2959073647305],[-82.3143123901533,37.296224662827],[-82.309415,37.300066],[-82.3068922261848,37.3017341115945],[-82.2969307130761,37.308320875503],[-82.291908,37.311642],[-82.290564317551,37.31257591583141],[-82.2864525052966,37.3154337983343],[-82.2544624321979,37.3376682449765],[-82.254352,37.337745],[-82.2187034251438,37.3627895314528],[-82.2186401435788,37.362833989251],[-82.202688,37.374041],[-82.201745,37.375108],[-82.1498258152267,37.4103307484948],[-82.1367582381962,37.4191959874463],[-82.124854,37.427272],[-82.11119842905092,37.43687656863],[-82.062809,37.470911],[-82.050888,37.480527],[-81.968012,37.538035],[-81.965401,37.541171],[-81.964971,37.543026],[-81.9662456156854,37.5438824747592],[-81.970147,37.546504],[-81.97638600000002,37.545426],[-81.980841,37.54235700000001],[-81.982479,37.541807],[-81.987511,37.542835],[-81.989092,37.542514],[-81.992597,37.538323],[-81.994033,37.537612],[-81.996909,37.538572],[-81.996912,37.542808],[-81.998177,37.543082],[-81.999844,37.542579],[-82.007412,37.533677],[-82.009194,37.533243],[-82.013966,37.533564],[-82.01592,37.534321],[-82.016925,37.538556],[-82.018878,37.540572],[-82.021006,37.540526],[-82.025261,37.538261],[-82.028826,37.537667],[-82.036932,37.542729],[-82.038024,37.546918],[-82.038972,37.547926],[-82.042825,37.548361],[-82.04478,37.546713],[-82.045155,37.544516],[-82.04481,37.541814],[-82.042396,37.53577],[-82.042397,37.533916],[-82.044382,37.529017],[-82.046653,37.528193],[-82.048205,37.528972],[-82.048463,37.533962],[-82.049584,37.535222],[-82.054787,37.536756],[-82.05746,37.536893],[-82.061256,37.536001],[-82.063326,37.536206],[-82.06441800000002,37.53687],[-82.064792,37.539021],[-82.063671,37.541929],[-82.06441800000002,37.544516],[-82.0658225411205,37.5461876712226],[-82.073246,37.555023],[-82.07503,37.555824],[-82.084605,37.55541],[-82.089178,37.556004],[-82.100028,37.552804],[-82.103144,37.552776],[-82.1037106056603,37.5528747057538],[-82.10478,37.55306100000001],[-82.105355,37.554262],[-82.104303,37.555655],[-82.101946,37.558106],[-82.102263,37.559456],[-82.104808,37.560191],[-82.110667,37.558744],[-82.117304,37.559226],[-82.120722,37.556369],[-82.121985,37.552763],[-82.123824,37.551389],[-82.127089,37.551345],[-82.130472,37.551849000000004],[-82.133247,37.552832],[-82.134231,37.554422],[-82.135324,37.557351000000004],[-82.1345879141748,37.5585767179981],[-82.133526,37.560345],[-82.134424,37.562928],[-82.13611,37.563865],[-82.143183,37.565773],[-82.1437302656629,37.5662361929668],[-82.144563,37.566941],[-82.144648,37.568315],[-82.143468,37.570375],[-82.14282030724081,37.5706005076619],[-82.141828,37.570946],[-82.129604,37.571972],[-82.127303,37.572681],[-82.124372,37.57641000000001],[-82.124307,37.577806],[-82.125601,37.579021],[-82.127321,37.586667],[-82.129859,37.59027300000001],[-82.132284,37.593327],[-82.141555,37.595166],[-82.146419,37.59265],[-82.148065,37.590779],[-82.156718,37.59279],[-82.157609,37.596773],[-82.15611,37.604945],[-82.156741,37.609202],[-82.158554,37.609546],[-82.163394533593,37.6082303380375],[-82.165228,37.607732],[-82.16727600000002,37.60795000000001],[-82.168534,37.608692],[-82.1694798412742,37.613056076679804],[-82.169508,37.613186],[-82.1692848819072,37.6134509432982],[-82.165075,37.61845],[-82.164191,37.620192],[-82.1649280091154,37.620600305561],[-82.167126,37.621818000000005],[-82.169515,37.621978],[-82.17271,37.61985],[-82.176682,37.618202],[-82.1771112875682,37.6185311084137],[-82.1773026344568,37.6186778023215],[-82.18143,37.621842],[-82.18163419261272,37.6222433988529],[-82.182716,37.62437],[-82.182009811468,37.6262832541984],[-82.181691,37.627147],[-82.173482,37.631055],[-82.172446,37.632589],[-82.172762,37.634008],[-82.175956,37.637396],[-82.177511,37.640417],[-82.177338,37.641722],[-82.17577591425761,37.64455556459],[-82.1747342821863,37.6464450458606],[-82.174688,37.646529],[-82.174631,37.647422000000006],[-82.175264,37.647971],[-82.17762500000002,37.648956],[-82.1827164821492,37.6489410460874],[-82.185456,37.648933],[-82.187989,37.647582],[-82.190756,37.645137],[-82.191169,37.644012],[-82.190141,37.641267],[-82.18798400000001,37.639495000000004],[-82.186839,37.634672],[-82.186008,37.628414],[-82.187298,37.626935],[-82.192394,37.625606],[-82.2006848632024,37.6277608524889],[-82.20120100000001,37.627895],[-82.202467,37.627483],[-82.202698,37.62628],[-82.205862,37.625065000000006],[-82.207712,37.625483],[-82.213443,37.62522],[-82.215953,37.626209],[-82.214815,37.627572],[-82.2202,37.633912],[-82.220224,37.635359],[-82.218705,37.636826],[-82.216944,37.640125],[-82.216848,37.641598],[-82.21934,37.642931],[-82.223554,37.644333],[-82.224868,37.646392],[-82.225535,37.651947],[-82.226111,37.653092],[-82.231024,37.655318],[-82.232421,37.655251],[-82.23417,37.656263],[-82.234384,37.657917],[-82.24041000000001,37.661567],[-82.243722,37.660792],[-82.2494975892989,37.6580062438215],[-82.251901,37.656847],[-82.257111,37.656749],[-82.26796200000001,37.662407],[-82.2719295837039,37.66375103242],[-82.272021,37.663782],[-82.2768803069663,37.668940915816],[-82.277876,37.669998],[-82.2817655828425,37.6751254573187],[-82.282297,37.675826],[-82.283506,37.676078],[-82.284687,37.67527700000001],[-82.286446,37.670127],[-82.288174,37.668227],[-82.291773,37.669143],[-82.294393,37.670448],[-82.29471,37.672257],[-82.294134,37.673378],[-82.294392,37.677957],[-82.294737,37.678277],[-82.296724,37.678071],[-82.3001766753441,37.6765158131995],[-82.3021609530266,37.6756220360114],[-82.302312,37.675554],[-82.3034687442205,37.6756992098168],[-82.303953,37.67576],[-82.304501,37.677157],[-82.303867,37.678392],[-82.297126,37.684228],[-82.29611800000002,37.686174],[-82.296262,37.687067],[-82.297788,37.687753],[-82.301504,37.690775],[-82.302886,37.693683],[-82.301964,37.696223],[-82.297325,37.699817],[-82.29697161884822,37.7011394944409],[-82.296634,37.702403],[-82.2975369216655,37.7034940303458],[-82.298074,37.704143],[-82.300954,37.706135],[-82.305679,37.706708],[-82.3062241410736,37.7070446841721],[-82.307235,37.707669],[-82.310665,37.7133],[-82.311097,37.717329],[-82.311702,37.718771],[-82.316197,37.721541],[-82.317869,37.72772],[-82.31830200000002,37.733053],[-82.318879,37.73376300000001],[-82.31968600000002,37.734404],[-82.326834,37.736257],[-82.3330361964842,37.7409790863399],[-82.33379,37.741553],[-82.334035,37.743227],[-82.327477,37.749373],[-82.321415,37.75126900000001],[-82.321005,37.756878],[-82.319951,37.758558],[-82.3182581530066,37.759606836067],[-82.317304,37.760198],[-82.3152919586923,37.7604202711684],[-82.312968,37.760677],[-82.311268,37.761331],[-82.310777,37.762692],[-82.31236300000002,37.764774],[-82.315197,37.765524],[-82.319654,37.764812],[-82.327356,37.762233],[-82.32946,37.762393],[-82.331162,37.763125],[-82.333994,37.76508],[-82.334057,37.766571],[-82.331654,37.768161],[-82.32350600000001,37.772231],[-82.323004,37.773907],[-82.323696,37.775028],[-82.32624,37.775906],[-82.32972,37.775697],[-82.332607,37.774249],[-82.335981,37.7745],[-82.337596,37.775369],[-82.338895,37.776857],[-82.339097,37.778276],[-82.338377,37.780428],[-82.339705,37.785509],[-82.340455,37.786058],[-82.348495,37.786773],[-82.3514126981772,37.789968838609],[-82.354275,37.793104],[-82.356122,37.793859],[-82.361105,37.794194],[-82.363889,37.795002],[-82.365286,37.796795],[-82.365557,37.79831800000001],[-82.36778000000001,37.800628],[-82.369973,37.801749],[-82.376169,37.80203],[-82.37635275892531,37.802245822982705],[-82.378129,37.804332],[-82.3784791409591,37.8079589146622],[-82.378514,37.80832],[-82.37958,37.810907],[-82.385259,37.81741],[-82.38658600000001,37.818212],[-82.387769,37.818212],[-82.389212,37.817206],[-82.393746,37.811668],[-82.39697800000002,37.809014],[-82.39871,37.808785],[-82.401652,37.810091],[-82.402228,37.810984],[-82.402199,37.812678],[-82.398444,37.821648],[-82.39968,37.829935],[-82.4055050791016,37.8338904234954],[-82.407874,37.835499],[-82.408941,37.836644],[-82.4113799657965,37.8422057322615],[-82.412119,37.843891],[-82.4135859706691,37.8450318762603],[-82.413734,37.845147],[-82.417428443998,37.8455601776667],[-82.419546,37.845797],[-82.420616,37.846663],[-82.420592,37.847855],[-82.4199425924661,37.8487068535158],[-82.414757,37.855509000000005],[-82.414878,37.85624],[-82.416889,37.856992],[-82.42391,37.860241],[-82.424674,37.861897],[-82.42401200000002,37.863172],[-82.422444,37.863926],[-82.416185,37.864943],[-82.408991,37.86577],[-82.407985,37.86651],[-82.40751300000001,37.867297],[-82.407935,37.868143],[-82.40967300000001,37.868931],[-82.414417,37.869033],[-82.416835,37.869625],[-82.418197,37.871213],[-82.419046,37.87284],[-82.419337,37.875095],[-82.419204,37.882081],[-82.419929,37.88487],[-82.422643,37.886665],[-82.429023,37.888285],[-82.43211300000002,37.88991],[-82.43532,37.89683],[-82.438118,37.900213],[-82.4429636945416,37.9021296081526],[-82.447331,37.903857],[-82.449083,37.906146],[-82.452326,37.908703],[-82.456996,37.908978],[-82.4588232734938,37.9093180996029],[-82.459994,37.909536],[-82.460895,37.910807],[-82.461493,37.913093],[-82.46288100000001,37.914832],[-82.464297,37.915038],[-82.467679,37.914204],[-82.468947,37.910962],[-82.468226,37.903567],[-82.4709694137254,37.8994930936513],[-82.471055,37.899366],[-82.472393,37.898963],[-82.474407,37.899955],[-82.47614,37.90212400000001],[-82.476324,37.903145],[-82.474635,37.905902],[-82.474232,37.908054],[-82.474666,37.910388],[-82.475534,37.911945],[-82.47932,37.914827],[-82.4802237158712,37.9150342835288],[-82.48739,37.916678],[-82.488346,37.917724],[-82.488093,37.91956],[-82.481001,37.924303],[-82.480338,37.925836],[-82.481889,37.926788],[-82.494669,37.926792],[-82.497271,37.927621],[-82.502198,37.933052],[-82.502263,37.934698],[-82.500386,37.936518],[-82.498107,37.936962],[-82.491902,37.935742],[-82.490666,37.935951],[-82.489514,37.937935],[-82.489917,37.939231],[-82.496716,37.941621],[-82.497586,37.942994],[-82.4977106318157,37.9454922588029],[-82.497719,37.94566],[-82.496681,37.946405],[-82.495294,37.946612],[-82.487836,37.945288],[-82.48512,37.946044],[-82.48096,37.949136],[-82.475096,37.954906],[-82.471555,37.959055],[-82.471657,37.959988],[-82.47266900000001,37.960721],[-82.479031,37.962],[-82.483987,37.963343],[-82.484981,37.964401],[-82.48426,37.971383],[-82.481894,37.972958],[-82.46938,37.973059],[-82.464987,37.976859000000005],[-82.464067,37.980295],[-82.464257,37.983412],[-82.465539,37.98472],[-82.471009,37.986520000000006],[-82.473074,37.986650000000004],[-82.482173,37.983695],[-82.483968,37.984093],[-82.486115,37.990511],[-82.485967,37.995705],[-82.487732,37.99833],[-82.489236,37.99898],[-82.500768,37.99903],[-82.507197,38.001512],[-82.509812,38.00124900000001],[-82.512993,37.999264],[-82.514417,37.999228],[-82.519193,38.001131],[-82.519131,38.001957],[-82.515583,38.004749],[-82.51565,38.00669],[-82.518,38.007291],[-82.519755,38.008375],[-82.522591,38.012968],[-82.525831,38.019564],[-82.525817,38.026406],[-82.527068,38.027586],[-82.53037100000002,38.028792],[-82.534976,38.03225],[-82.5373191846236,38.0355322496051],[-82.538639,38.037381],[-82.539071,38.039788],[-82.53747,38.042701],[-82.537293,38.045204],[-82.541245,38.048444],[-82.543916,38.052133],[-82.544779,38.054262],[-82.54485,38.058521],[-82.547284,38.061094],[-82.549407,38.063063],[-82.54958,38.068579],[-82.5507076169687,38.070069952752],[-82.551259,38.070799],[-82.559598,38.072837],[-82.565736,38.08064],[-82.574075,38.082104],[-82.584039,38.090663],[-82.585488,38.094256],[-82.585142,38.098055],[-82.585696,38.107003],[-82.587782,38.108879],[-82.59178,38.109908000000004],[-82.593605,38.110869],[-82.5946785186106,38.1121008906253],[-82.598011,38.115925],[-82.60012700000001,38.117389],[-82.60143989539601,38.1178955003916],[-82.602618,38.11835],[-82.6063295273407,38.1206801026594],[-82.606589,38.120843],[-82.6133529820248,38.1204029166507],[-82.614337835365,38.1203388393727],[-82.616149,38.120221],[-82.619452,38.120745],[-82.620351,38.121477],[-82.621164,38.123239],[-82.621167,38.131996],[-82.622125,38.133414],[-82.626182,38.134835],[-82.6285849083792,38.1353802101902],[-82.63426500000001,38.136669],[-82.636466,38.13786],[-82.637306,38.13905],[-82.638288,38.143491],[-82.638398,38.152157],[-82.638947,38.156742],[-82.644739,38.165487],[-82.6431981036679,38.1690897960737],[-82.642997,38.16956],[-82.639054,38.171114],[-82.625457,38.170491],[-82.619429,38.169027],[-82.613487,38.170242],[-82.611343,38.171548],[-82.60425,38.187639],[-82.6015294689086,38.1929386210862],[-82.599326,38.197231],[-82.59886400000002,38.201007],[-82.598437,38.21739300000001],[-82.600353,38.218949],[-82.6043302332994,38.22056657033391],[-82.60575,38.221144],[-82.608944,38.22366],[-82.610367,38.226772],[-82.61252,38.234553],[-82.61226,38.236087],[-82.607131,38.245975],[-82.605333,38.247303],[-82.60423,38.247303],[-82.59497000000002,38.245453],[-82.5861048357996,38.2456151979756],[-82.586061,38.245616],[-82.584001,38.246371],[-82.581796,38.248592],[-82.578254,38.254809],[-82.574656,38.263873],[-82.5746,38.274721],[-82.57672,38.277513],[-82.578782,38.281747],[-82.57948,38.284928],[-82.579743,38.291726],[-82.582823,38.295478],[-82.583056,38.296829],[-82.58146,38.300445],[-82.578352,38.305458],[-82.576156,38.308639],[-82.571923,38.313347],[-82.57175600000001,38.317195],[-82.575395,38.32298],[-82.5760627549786,38.3260992223932],[-82.576496,38.328123],[-82.584588,38.333733],[-82.587951,38.338595],[-82.589545,38.34054],[-82.592543,38.34166],[-82.596525,38.342849],[-82.597979,38.344909],[-82.5981739998383,38.3569581328633],[-82.598189,38.357885],[-82.597524,38.364843],[-82.596654,38.367338],[-82.5952022980497,38.3697605477771],[-82.593952,38.371847],[-82.593008,38.375082],[-82.5929036669467,38.3764464384789],[-82.592815,38.37760600000001],[-82.593465,38.380279],[-82.5942952866671,38.381488262210304],[-82.599273,38.388738],[-82.599737,38.39037],[-82.599241,38.39317],[-82.59474,38.397844],[-82.5947656358571,38.3981864007577],[-82.5948672500295,38.3995435923478],[-82.595001,38.40133],[-82.597033,38.409937],[-82.597113,38.412881],[-82.596281,38.41768100000001],[-82.59348,38.421821],[-82.5944170196755,38.4231509634104],[-82.596921,38.426705],[-82.5977398193484,38.4289908706811],[-82.5979348140177,38.4295352307996],[-82.600761,38.437425],[-82.6009413404217,38.4386396967825],[-82.6015854919202,38.4429784287513],[-82.604058958453,38.4596386528492],[-82.604089,38.459841],[-82.608202,38.468049],[-82.610458,38.471457],[-82.6113459540233,38.472272728098],[-82.61331317048912,38.4740799317412],[-82.613802,38.474529],[-82.618474,38.477089],[-82.624106,38.479697],[-82.6297412378894,38.4816658736453],[-82.637707,38.484449],[-82.639245731649,38.4853011475141],[-82.64839500000001,38.490368],[-82.657051,38.496816],[-82.6601723802189,38.5001192188923],[-82.6609198134668,38.5009101945032],[-82.6654809126012,38.5057370043674],[-82.665548,38.505808],[-82.6739943313896,38.5138559195316],[-82.67572400000002,38.515504],[-82.6816287451687,38.52396908513191],[-82.6845939871938,38.5282200774208],[-82.6892867647766,38.5349476771069],[-82.689965,38.53592],[-82.6920195806056,38.5378313526307],[-82.6921156574314,38.5379207317932],[-82.696621,38.542112],[-82.699458658338,38.5439551519111],[-82.700045,38.544336],[-82.7061388821243,38.547019607876],[-82.7082906334945,38.5479671905181],[-82.714142,38.550544],[-82.7167745444126,38.552031959885404],[-82.719662,38.553664],[-82.724846,38.5576],[-82.730958,38.559264],[-82.739582,38.558991],[-82.7451439765948,38.5593157734851],[-82.7510705392572,38.5596618357846],[-82.763695,38.560399],[-82.779472,38.559023],[-82.789776,38.559951],[-82.800112,38.563183],[-82.8118214197335,38.5687430616421],[-82.8159813238463,38.5707183365762],[-82.820161,38.572703],[-82.8367688321434,38.5842360024938],[-82.839538,38.586159],[-82.844306,38.590862],[-82.8470555751281,38.5949710872748],[-82.847186,38.595166],[-82.851314,38.604334],[-82.854291,38.613454],[-82.854919035355,38.616527364503],[-82.855795,38.620814],[-82.856791,38.632878],[-82.8563972302811,38.6432735205781],[-82.856291,38.646078],[-82.8565321817375,38.6471905480149],[-82.859391,38.660378],[-82.863291,38.669277],[-82.869592,38.678177],[-82.8746642639175,38.6826271938144],[-82.874892,38.682827],[-82.877592,38.690177],[-82.876892,38.697377],[-82.875292,38.704977],[-82.871192,38.718377],[-82.870392,38.722077],[-82.8699221948745,38.7278086225307],[-82.869892,38.728177],[-82.8700173214918,38.7291794824191],[-82.871292,38.739376],[-82.872592,38.742576],[-82.8739413081967,38.7447628098361],[-82.8743343865574,38.7453998678689],[-82.875492,38.747276],[-82.879492,38.751476],[-82.8848457983137,38.7540146529474],[-82.889193,38.756076],[-82.894193,38.756576],[-82.9175843886149,38.7514221399276],[-82.923694,38.750076],[-82.9282577256186,38.7484816402969],[-82.9313965104898,38.7473850905625],[-82.943147,38.74328],[-82.9478713936103,38.7407888033693],[-82.95811479719102,38.7353874048848],[-82.958895,38.734976],[-82.968695,38.728776],[-82.9692904420084,38.7286201833997],[-82.9748812496526,38.7271571683152],[-82.979395,38.725976],[-82.986095,38.726276],[-82.993996,38.728576],[-82.9970268334725,38.7290334842977],[-82.9970379195962,38.7290351576749],[-82.999296,38.729376],[-83.0115737711362,38.73004382445241],[-83.011816,38.730057],[-83.0132883446179,38.729869252352],[-83.021752,38.72879],[-83.027917,38.727143],[-83.030702,38.72572],[-83.0308858850033,38.725567690406],[-83.033014,38.723805],[-83.035964,38.720152],[-83.03827450770731,38.7166321587591],[-83.038442,38.716377],[-83.04233800000002,38.708319],[-83.053104,38.695831],[-83.064319,38.688976],[-83.0798265464706,38.6828328085866],[-83.084226,38.68109],[-83.102746,38.677316],[-83.107436,38.67522],[-83.112372,38.671685],[-83.11786,38.666073],[-83.122547,38.6592],[-83.126311,38.645244],[-83.128973,38.640231],[-83.135046,38.631719],[-83.142836,38.625076],[-83.1535089215046,38.6189834553318],[-83.153783,38.618827],[-83.1563380180079,38.6188673217739],[-83.175961,38.619177],[-83.1990826022559,38.617139381218],[-83.203728,38.61673],[-83.213113,38.618888],[-83.226189,38.625307],[-83.232404,38.627569],[-83.239515,38.628588],[-83.245664,38.628564],[-83.251103,38.626224],[-83.254558,38.623403],[-83.261126,38.622723],[-83.266392,38.619615],[-83.2670668881558,38.6181775965671],[-83.26851,38.615104],[-83.28651400000001,38.599241],[-83.2867152235238,38.5991337260506],[-83.288885,38.597977],[-83.294193,38.596588],[-83.301951,38.598178],[-83.3054043740387,38.5997317540735],[-83.307832,38.600824],[-83.311448,38.603314],[-83.317542,38.609242],[-83.3176528449207,38.6094546601397],[-83.319101,38.612233],[-83.320099,38.616043],[-83.320531,38.622713],[-83.322383,38.630615],[-83.327636,38.637489],[-83.340004,38.645674],[-83.356445,38.654009],[-83.366661,38.658537],[-83.3759244688216,38.6613580294015],[-83.376302,38.661473],[-83.384755,38.663171],[-83.3848700965195,38.66318503904181],[-83.412039,38.666499],[-83.420194,38.668428],[-83.4374815344877,38.669226083606],[-83.440404,38.669361],[-83.446989,38.670143],[-83.4566943863917,38.6738280771696],[-83.457055,38.673965],[-83.459809,38.673617],[-83.468059,38.67547],[-83.472157,38.678123],[-83.47642,38.682261],[-83.486477,38.690099],[-83.49334200000001,38.694187],[-83.504365,38.699256],[-83.512571,38.701716000000005],[-83.520953,38.703045],[-83.533339,38.702105],[-83.549298,38.698787],[-83.56187,38.695371],[-83.569098,38.692842],[-83.5750023722239,38.6917675865918],[-83.575121,38.691746],[-83.58800591775251,38.6894722812638],[-83.5911840781091,38.68891145170411],[-83.591912,38.688783],[-83.59588900000001,38.687088],[-83.601572,38.683938],[-83.60491,38.684848],[-83.609095,38.685013],[-83.614136,38.68397],[-83.6204648190644,38.6817015049451],[-83.6265364693615,38.6795251891847],[-83.626922,38.679387],[-83.629281,38.676273],[-83.634212,38.671371],[-83.63696,38.666023],[-83.640478,38.648277],[-83.644181,38.637833],[-83.6451247920466,38.6364649596839],[-83.648301,38.631861],[-83.653039,38.629366000000005],[-83.657142,38.62791],[-83.664143,38.626754],[-83.671443,38.627381],[-83.686037,38.631867],[-83.704006,38.639724],[-83.7053141053281,38.6397614373579],[-83.708164,38.639843],[-83.7121718779562,38.641179724035],[-83.713405,38.641591],[-83.716933,38.643657],[-83.7178110163233,38.645078635391],[-83.717915,38.645247],[-83.720779,38.646704],[-83.738207,38.647932],[-83.7495541661408,38.6495604970787],[-83.7498217097683,38.6495988938035],[-83.74992,38.649613],[-83.7587736401926,38.6513731248766],[-83.762445,38.652103],[-83.76509,38.652881],[-83.769347,38.65522],[-83.77216,38.65815],[-83.7732693470806,38.6607987548456],[-83.775761,38.666748],[-83.777141,38.671205],[-83.779961,38.684907],[-83.78362,38.695641],[-83.7837947253569,38.6958334830156],[-83.787113,38.699489],[-83.790676,38.701676],[-83.798549,38.704668],[-83.8058336013663,38.7064919636531],[-83.806317,38.706613000000004],[-83.81388,38.707446],[-83.821854,38.709575],[-83.8227253267636,38.7100359197492],[-83.8257127476902,38.7116162239036],[-83.83326388451971,38.7156106703491],[-83.834015,38.716008],[-83.836696,38.717857],[-83.8391538748146,38.7204132150227],[-83.840595,38.721912],[-83.841689,38.724264],[-83.842506,38.727019],[-83.84274,38.730365],[-83.844676,38.737439],[-83.846207,38.74229],[-83.8474869259069,38.7447657727871],[-83.848734,38.747178],[-83.852085,38.751433],[-83.853814741182,38.752768361189],[-83.859028,38.756793],[-83.86653,38.7602],[-83.873168,38.762418],[-83.887107,38.7656],[-83.9039169444849,38.7681517942292],[-83.903971,38.76816],[-83.912922,38.769763],[-83.915855924909,38.7696960559625],[-83.917217,38.769665],[-83.926986,38.771562],[-83.928591,38.772203],[-83.928454,38.774583],[-83.943978,38.783616],[-83.953546,38.786172],[-83.9590529004392,38.7869501699116],[-83.9604879777931,38.7871529580372],[-83.962123,38.787384],[-83.9751262400056,38.7871658640464],[-83.978814,38.787104],[-83.995447,38.781912],[-83.9964525014975,38.7817463191677],[-84.006104,38.780156],[-84.02035200130642,38.7758880496998],[-84.023113,38.775061],[-84.0285854746931,38.7739116087635],[-84.0358530163388,38.7723851971953],[-84.044486,38.770572],[-84.051642,38.771397],[-84.0526699451033,38.7713755116846],[-84.06341,38.771151],[-84.071491,38.770475],[-84.09433400000002,38.775246],[-84.108836,38.779247],[-84.1118836769784,38.7807996660541],[-84.115655,38.782721],[-84.13178725251,38.7883361163473],[-84.135088,38.789485],[-84.1440325085373,38.7918147644212],[-84.1518967859596,38.7938631624589],[-84.155912,38.794909],[-84.1886332554178,38.7995428280713],[-84.198358,38.80092],[-84.205592,38.802588],[-84.2110489721224,38.8049157210134],[-84.212904,38.805707],[-84.2195694974518,38.8115650658107],[-84.222059,38.813753000000005],[-84.2253,38.817665],[-84.2273199578317,38.8213407355996],[-84.230181,38.826547],[-84.2304215920899,38.8274035078399],[-84.231306,38.830552],[-84.233265,38.842671],[-84.233727,38.853576],[-84.2336920205416,38.8539330865981],[-84.2336596306254,38.8542637379435],[-84.2334593756631,38.8563080338393],[-84.233198331581,38.8589728933734],[-84.2324867817348,38.8662367255069],[-84.2319349168657,38.8718704190441],[-84.231837,38.87287],[-84.2319129457719,38.8748299158016],[-84.232132,38.880483],[-84.232343,38.884325],[-84.234453,38.893226],[-84.240155,38.900912],[-84.242689,38.903187],[-84.245647,38.907035],[-84.25701,38.923208],[-84.260797,38.926593],[-84.2619108127599,38.927770344204],[-84.27491,38.941511],[-84.27876465409,38.9443269149035],[-84.279916,38.945168],[-84.2841836782092,38.950663515308],[-84.288164,38.955789],[-84.295076,38.968295],[-84.2953278659995,38.9713773687179],[-84.2962075831128,38.982143460671],[-84.296466,38.985306],[-84.297255,38.989694],[-84.2977076397895,38.9910454745683],[-84.299362,38.995985],[-84.3028218516067,39.002773726822],[-84.304698,39.00645500000001],[-84.31368,39.016981],[-84.3199364709232,39.0220809555344],[-84.326539,39.027463],[-84.3350945583163,39.0321772872355],[-84.336339,39.032863],[-84.3363774064021,39.032879233633906],[-84.346039,39.036963],[-84.360439,39.041362],[-84.3613597300941,39.0414945243119],[-84.3712065252103,39.042911812348],[-84.38684,39.045162],[-84.38941998161351,39.0451973422139],[-84.39414,39.045262],[-84.3966869833509,39.0456740120126],[-84.40094,39.046362],[-84.40254,39.045662],[-84.406941,39.045662],[-84.421467,39.050938],[-84.4214792123506,39.0509440760956],[-84.421608393192,39.0510083483369],[-84.4239443757962,39.0521705859873],[-84.4245661280684,39.05247993071391],[-84.42573,39.053059],[-84.427913,39.054962],[-84.4287393257164,39.0563763541826],[-84.4294503306395,39.05759332319],[-84.429841,39.058262],[-84.432341,39.067561],[-84.4331317919463,39.0728988456376],[-84.433141,39.07296100000001],[-84.4326734620709,39.0779169020487],[-84.432641,39.078261],[-84.432941,39.083961],[-84.434641,39.086861],[-84.4346325076923,39.0869289384615],[-84.433941,39.092461],[-84.432841,39.094261],[-84.435541,39.102261],[-84.4358592728829,39.1027227171797],[-84.4402401161449,39.1090779887223],[-84.440642,39.109661],[-84.4407499022624,39.1097735936651],[-84.445242,39.114461],[-84.4456719124152,39.114772074837],[-84.449793,39.117754],[-84.455342,39.12036],[-84.462042,39.12176],[-84.4631018030123,39.1217225951878],[-84.470542,39.12146],[-84.4761428376073,39.1192004093147],[-84.47624300000001,39.11916],[-84.480943,39.11676],[-84.4848121102702,39.1133460791733],[-84.487743,39.11076],[-84.492429218324,39.1042773979851],[-84.4935544922307,39.1027207690808],[-84.49374300000001,39.10246],[-84.49583226813881,39.1008184321767],[-84.496543,39.10026],[-84.4986005556286,39.098910789306],[-84.5019963180453,39.0966840699391],[-84.502062,39.096641],[-84.5060822325253,39.0950807457156],[-84.509743,39.09366],[-84.519543,39.09206],[-84.5225736778395,39.092119413406],[-84.5225763500247,39.0921194657915],[-84.524644,39.09216],[-84.5372435220488,39.0974412367869],[-84.541344,39.09916],[-84.5415454696343,39.0992057885532],[-84.543544,39.09966],[-84.550844,39.09936],[-84.5510198104119,39.0992769784166],[-84.5531571760252,39.098267666877],[-84.554444,39.09766],[-84.557544,39.09486],[-84.5629562497685,39.0885175198025],[-84.563926390312,39.0873806363531],[-84.563944,39.08736],[-84.5652688909326,39.0865036680558],[-84.5718393126186,39.082256932088],[-84.572144,39.082060000000006],[-84.592408,39.078088],[-84.601682,39.074115],[-84.6043813489005,39.0737359847925],[-84.607928,39.073238],[-84.62011200000002,39.073457],[-84.6234848991522,39.0743602500324],[-84.632446,39.07676],[-84.635771693775,39.07952831493],[-84.650346,39.09166],[-84.657246,39.09546],[-84.666147,39.09796],[-84.677247,39.09826000000001],[-84.684847,39.100459],[-84.689747,39.104159],[-84.69248252865061,39.1074775101663],[-84.6970001232396,39.1129578708153],[-84.701947,39.118959],[-84.7122344808816,39.13060584638281],[-84.714048,39.132659],[-84.718548,39.137059],[-84.723298748118,39.1401213572408],[-84.726148,39.141958],[-84.7264211300536,39.1420737330736],[-84.732048,39.144458],[-84.744149,39.147458],[-84.750749,39.147358],[-84.754449,39.146658],[-84.7589353526971,39.1437035726141],[-84.766749,39.138558],[-84.783991,39.11806000000001],[-84.78768,39.115297],[-84.79382,39.112939],[-84.810753,39.109142],[-84.812241,39.107102000000005],[-84.813767,39.10649200000001],[-84.820157,39.10548],[-84.8252599935289,39.1034056360398],[-84.832435,39.100489],[-84.8372554157172,39.0971043514734],[-84.844582,39.09196],[-84.8457629228102,39.0907286238788],[-84.849825,39.086493],[-84.8516441686815,39.085094296392],[-84.860689,39.07814],[-84.8680268501706,39.0745155593998],[-84.872978,39.07207],[-84.880662,39.06997],[-84.888873,39.066376000000005],[-84.893203,39.06248],[-84.896911,39.057474],[-84.896881429943,39.0568074749306],[-84.8968690081543,39.0565274810998],[-84.896777257735,39.0544593770549],[-84.8967548078918,39.0539533454532],[-84.896726,39.053304],[-84.893164,39.049041],[-84.8891865929678,39.042921463824],[-84.889102150841,39.0427915433392],[-84.885659,39.037494],[-84.879115,39.033695],[-84.877912,39.03198],[-84.8773646668687,39.0316002471835],[-84.871824,39.027756],[-84.864509167168,39.0198047349953],[-84.850607,39.004693],[-84.847736,38.998008],[-84.83983,38.99129],[-84.8377364411286,38.9887939525043],[-84.83712,38.988059],[-84.833473,38.981522],[-84.830619,38.974898],[-84.8305258740629,38.9742242424001],[-84.829857,38.969385],[-84.832617,38.96146],[-84.8328512097312,38.9611377428826],[-84.8336769789683,38.9600015389657],[-84.83516,38.957961],[-84.84016,38.954571],[-84.8410535422616,38.9537674596208],[-84.8415389405069,38.9533309530258],[-84.844161,38.950973],[-84.849317,38.948265],[-84.8530118682735,38.9438194680931],[-84.853742,38.942941],[-84.85661037336811,38.9408402930324],[-84.864731,38.934893],[-84.870759,38.929231],[-84.877762,38.920357],[-84.879268,38.916116],[-84.8792317532698,38.9158981177703],[-84.878817,38.913405],[-84.877029,38.909016],[-84.8711586444968,38.9016816688014],[-84.8705710710421,38.9009475636321],[-84.870124,38.900389],[-84.867778,38.899133],[-84.860759,38.897654],[-84.8600569635394,38.8976447745729],[-84.830472,38.897256],[-84.8286487953104,38.8969613828391],[-84.816938,38.895069],[-84.812746,38.895132],[-84.8010842885177,38.8913421070453],[-84.800247,38.89107],[-84.792482,38.886743],[-84.786406,38.88222],[-84.785234,38.880439],[-84.784579,38.87532],[-84.785799,38.869496],[-84.78830200000002,38.864325],[-84.791002,38.860572],[-84.793714,38.857788],[-84.7948332142549,38.8571966680428],[-84.798459,38.855281],[-84.803247,38.850723],[-84.817169,38.84342],[-84.8227028377744,38.8396461978109],[-84.823363,38.839196],[-84.827488,38.834909],[-84.829958,38.830632],[-84.8299551356098,38.8304240532306],[-84.829886,38.825405],[-84.827098,38.818634],[-84.816506,38.80532],[-84.811645,38.792766],[-84.811752,38.789169],[-84.812877,38.786087],[-84.8131626234462,38.7858280930326],[-84.814641,38.784488],[-84.821378,38.783111],[-84.828857,38.783271],[-84.837808,38.784906],[-84.852866,38.789382],[-84.861989,38.791086],[-84.8768325938075,38.7924668674124],[-84.877221,38.792503],[-84.887285,38.794776000000006],[-84.89393000000001,38.793704],[-84.8964379358352,38.792731168919],[-84.903435,38.790017],[-84.9081470827951,38.7876483786713],[-84.915234,38.784086],[-84.926422,38.78047900000001],[-84.932977,38.777519],[-84.943641,38.775427],[-84.94795300000001,38.775489],[-84.962255,38.778177],[-84.979995,38.779584],[-84.990109559485,38.7786964753787],[-84.991927,38.778537],[-84.9930855813674,38.7779850057359],[-84.999949,38.774715],[-85.01098600000002,38.767032],[-85.0234253770209,38.762102680894],[-85.0331731252391,38.75823996643081],[-85.040938,38.755163],[-85.0524,38.74814],[-85.0557762833931,38.7468399661856],[-85.059677,38.745338],[-85.0636562753866,38.7441131328477],[-85.071928,38.741567],[-85.079537,38.736902],[-85.0944227743565,38.7292189404962],[-85.097728,38.727513],[-85.10140500000001,38.726551],[-85.106979,38.72163],[-85.106902,38.720789],[-85.1137729133948,38.7163204331243],[-85.125238,38.708864000000005],[-85.1279173412794,38.7065037035056],[-85.13199,38.702916],[-85.136697,38.700236],[-85.156158,38.692251],[-85.173048,38.688022],[-85.176567,38.688463],[-85.1786343373242,38.6883123119485],[-85.1801240487357,38.6882037270034],[-85.18864,38.687583],[-85.192114,38.689093],[-85.2014516870153,38.6910523612589],[-85.2045,38.691692],[-85.213257,38.695446],[-85.221124,38.700957],[-85.22623,38.705867],[-85.235087,38.718002],[-85.2462646968192,38.7315301653831],[-85.246505,38.731821],[-85.24874327564841,38.7328912919245],[-85.258946,38.73777],[-85.268495,38.740165],[-85.278764,38.741645],[-85.289267,38.742357],[-85.2959009271645,38.7420219573465],[-85.305325,38.741546],[-85.3330905339004,38.736201928374],[-85.33375,38.736075],[-85.336403,38.734928],[-85.3370362823289,38.7347955405487],[-85.348953,38.732303],[-85.3633817801784,38.7306749601779],[-85.365216,38.730468],[-85.367025,38.731007],[-85.3698532146011,38.73070636726471],[-85.3699026065225,38.7307011170166],[-85.372265,38.73045],[-85.3843386575433,38.7328926856925],[-85.3974507603709,38.735545464758],[-85.397834,38.735623],[-85.410238,38.737135],[-85.41954000000001,38.735513],[-85.423418,38.733835],[-85.425351,38.732983],[-85.43629900000002,38.728484],[-85.442271,38.71985],[-85.4431821214301,38.7189381877157],[-85.450184,38.711931],[-85.45094500000002,38.708882],[-85.4520516282247,38.7083443162298],[-85.452361,38.708194],[-85.456755,38.692252],[-85.456481,38.685069],[-85.455486,38.68209],[-85.4544396861738,38.6809126885849],[-85.444815,38.670083],[-85.438742,38.659319],[-85.43837635600221,38.6555238046803],[-85.43773800000001,38.648898],[-85.4381422999201,38.6458297737653],[-85.439463,38.635807],[-85.439729,38.611493],[-85.439284,38.607406],[-85.4363,38.59839],[-85.4339933300131,38.5947869679032],[-85.4285934968577,38.5863523967306],[-85.418971,38.571322],[-85.415821,38.563558],[-85.4158178678112,38.5628641789751],[-85.415745,38.546723],[-85.417047,38.541726],[-85.422441,38.532931],[-85.428742,38.527073],[-85.4332489449541,38.5246823758042],[-85.438436,38.521931],[-85.458554,38.514678],[-85.466864,38.51084],[-85.467150877096,38.5105916394535],[-85.4732001408157,38.5053545589621],[-85.475124,38.503689],[-85.479472,38.494533],[-85.481246,38.488374],[-85.482897,38.485701000000006],[-85.4888374940541,38.478036543214],[-85.491422,38.474702],[-85.498866,38.468242],[-85.50939600000001,38.463492],[-85.5156410981695,38.4611158519342],[-85.524787,38.457636],[-85.538207,38.455214],[-85.5419606705514,38.4547889364615],[-85.552407,38.453606],[-85.56251,38.453325],[-85.566225,38.452794],[-85.574912,38.452575],[-85.58603300000001,38.450092],[-85.597104,38.445102],[-85.604457,38.44082],[-85.609712,38.434817],[-85.618281,38.426353],[-85.6205635829144,38.4225913631545],[-85.620724,38.422327],[-85.620543,38.420428],[-85.6221133230875,38.4168140263261],[-85.62406300000002,38.412327],[-85.629961,38.402306],[-85.632937,38.395666],[-85.6329407011806,38.3956544221598],[-85.6336845466762,38.3933275634739],[-85.635089934985,38.3889313010612],[-85.6356646966191,38.3871333616927],[-85.6369286032287,38.3831796749528],[-85.6372324349485,38.3822292444126],[-85.637683964627,38.3808167928211],[-85.637861,38.380263],[-85.6378636024769,38.3802462336459],[-85.638365,38.377016],[-85.6383870156092,38.3760968307318],[-85.6383967350527,38.3756910362007],[-85.6384246486703,38.3745256203729],[-85.6386719124505,38.3642021600549],[-85.638678,38.363948],[-85.6423103173556,38.3523835322261],[-85.64431,38.346017],[-85.6443512461506,38.3459276840161],[-85.6450303852211,38.3444570504321],[-85.6463076691024,38.3416911713158],[-85.6509650241036,38.3316059575868],[-85.651364,38.330742],[-85.6540978313233,38.32602030135],[-85.655355,38.323849],[-85.6593878789268,38.3198951449007],[-85.659897,38.319396],[-85.6668719239612,38.3117798834773],[-85.667925,38.31063],[-85.673567,38.302325],[-85.6757966601872,38.300795427232],[-85.6769516733052,38.3000030748268],[-85.683561,38.295469],[-85.6993730723917,38.2878513541918],[-85.7039895792801,38.2856272994648],[-85.7046598552371,38.2853043863951],[-85.7051206290256,38.2850824033791],[-85.7160145332834,38.2798341410357],[-85.7325330230487,38.271876170619],[-85.7354364716036,38.2704774012379],[-85.740857,38.267866],[-85.7446809589001,38.2672534416548],[-85.7446969224498,38.2672508844606],[-85.745077,38.26719],[-85.7506554584971,38.2678945005417],[-85.7511995529466,38.2679632139389],[-85.751475,38.267998000000006],[-85.760933,38.271977],[-85.7613958687578,38.2723743285034],[-85.767162,38.277324],[-85.765898,38.279082],[-85.765991,38.28034400000001],[-85.771407,38.284105],[-85.772268,38.28558700000001],[-85.777376,38.286546],[-85.7773924519609,38.2865546968734],[-85.7795146670337,38.2876765470761],[-85.781027,38.288476],[-85.786904,38.288533],[-85.7910785029457,38.2877617033438],[-85.793231,38.287364000000004],[-85.79727,38.285697],[-85.8023950052601,38.2848097839189],[-85.8024108977113,38.2848070326947],[-85.803809,38.284565],[-85.817399,38.282387],[-85.8178102839745,38.2822438318928],[-85.8237082719322,38.2801907400522],[-85.824532,38.279904],[-85.829216,38.276508],[-85.8321249854001,38.271813955377],[-85.8340334040418,38.2687344616597],[-85.836168,38.26529],[-85.8366275258556,38.2633922586591],[-85.837632,38.25924400000001],[-85.8376257295288,38.2589991605902],[-85.83741850109251,38.2509076333738],[-85.837395,38.24999],[-85.8382535516614,38.2447956612043],[-85.839091,38.239729],[-85.84290218364002,38.2334747683972],[-85.844381,38.231048],[-85.8453551105113,38.2299360217731],[-85.852358,38.221942],[-85.8562029189285,38.2195175044833],[-85.8658404471968,38.2134403557805],[-85.871945,38.209591],[-85.880264,38.203369],[-85.893544,38.189015],[-85.89489206663771,38.1870738832314],[-85.8995474485423,38.1803704758282],[-85.903873,38.174142],[-85.907965,38.161473],[-85.909133,38.144387],[-85.908752,38.133793],[-85.9060823051647,38.1168856767718],[-85.905164,38.11107],[-85.904226,38.099802],[-85.905266,38.088933],[-85.9064111199356,38.0862939572759],[-85.9077196278703,38.0832783706662],[-85.912006,38.0734],[-85.913839,38.071961],[-85.91536578052761,38.0651564672367],[-85.916315,38.060926],[-85.918912,38.041195],[-85.921275,38.03032],[-85.92565400000001,38.021784],[-85.931221,38.016018],[-85.939609,38.009821],[-85.942216,38.007267],[-85.947114,38.005085],[-85.954638,38.004657],[-85.972918,38.002574],[-85.97742300000002,38.003388],[-85.9990070966307,37.9999828010725],[-86.004045,37.999188],[-86.018451,37.996528000000005],[-86.025561,37.994505],[-86.029509,37.99264],[-86.0307127124614,37.9916067355012],[-86.032468,37.9901],[-86.035103,37.984358],[-86.03543200000001,37.98136],[-86.033578,37.970231000000005],[-86.0342672666978,37.9652544412164],[-86.034355,37.964621],[-86.036013,37.961703],[-86.03819,37.959588],[-86.042307,37.958171],[-86.046736,37.958995],[-86.050029,37.9605],[-86.057997,37.96767100000001],[-86.064859,37.975618],[-86.06800047911081,37.980661819239],[-86.069899,37.98371],[-86.075932,37.995493],[-86.075463,37.997183],[-86.079389,38.000625],[-86.0794042694217,38.0006344577287],[-86.086341,38.004931],[-86.0990637184234,38.0104237656786],[-86.104167,38.012627],[-86.117523,38.015441],[-86.1283,38.016192],[-86.13330952749831,38.0158231298576],[-86.147897,38.014749],[-86.152485,38.013016],[-86.165313,38.009867],[-86.1693672869626,38.009997888133],[-86.176557,38.01023],[-86.1884768058019,38.0153794888252],[-86.190927,38.016438],[-86.196463775153,38.0186204382318],[-86.2013240218796,38.0205362083289],[-86.2061109928456,38.0224230952192],[-86.220711,38.028178],[-86.223328,38.031516],[-86.233448,38.03818],[-86.233339,38.039625],[-86.24693,38.044679],[-86.2527288597137,38.0477539105216],[-86.259256,38.051215],[-86.267203,38.056798],[-86.271383,38.061957],[-86.272628094342,38.0650604018901],[-86.273584,38.067443],[-86.27770400000001,38.08248100000001],[-86.2790250864841,38.0997734164214],[-86.2791,38.100754],[-86.2779073006335,38.10501427874291],[-86.27536200000002,38.114106],[-86.270269,38.129783],[-86.270605,38.135779],[-86.272847,38.140835],[-86.2771288555078,38.1459697442056],[-86.28711,38.157939],[-86.29574,38.164069],[-86.317139,38.172907],[-86.329672384455,38.1817018461543],[-86.333479,38.184373],[-86.34266064017,38.1914506618832],[-86.347736,38.195363],[-86.357717,38.19880700000001],[-86.3580052891978,38.1987627565776],[-86.367504,38.197305],[-86.373801,38.193352],[-86.3752461848339,38.1908579764257],[-86.378151,38.185845],[-86.378579,38.178572],[-86.377434,38.171379],[-86.37174,38.164183],[-86.366055,38.161531],[-86.35755100000002,38.159907],[-86.344856,38.158967],[-86.328028,38.154786],[-86.32393300000001,38.152374],[-86.321191,38.147005],[-86.323847,38.13841200000001],[-86.329111,38.131999],[-86.333665,38.129235],[-86.340556,38.127737],[-86.352466,38.128459],[-86.375324,38.130629],[-86.379775,38.129274],[-86.387808,38.124392],[-86.39184,38.117148],[-86.396146,38.107152],[-86.401879,38.104329],[-86.405068,38.105801],[-86.4173328959006,38.1163456538958],[-86.418201,38.117092],[-86.4265410061397,38.1231146023173],[-86.429541,38.125281],[-86.439688,38.127412],[-86.449793,38.127223],[-86.457115,38.124531],[-86.4610337136873,38.1211745670961],[-86.463248,38.119278],[-86.466081,38.114437],[-86.466217,38.106781],[-86.463858,38.101177],[-86.458833,38.096006],[-86.449994,38.092031],[-86.447455,38.091794],[-86.434046,38.086763],[-86.431354,38.083466],[-86.430091,38.078638],[-86.432789,38.067171],[-86.4332359717099,38.066617516581],[-86.438236,38.060426],[-86.452192,38.05049],[-86.462085,38.047532],[-86.471903,38.04621800000001],[-86.480393,38.045578],[-86.4907693787391,38.0456724842707],[-86.500051,38.045757],[-86.51176,38.044448],[-86.517289,38.042634],[-86.519404,38.041241],[-86.521825,38.038327],[-86.5246846781271,38.0288238457151],[-86.5248730823801,38.0281977491389],[-86.524969,38.027879],[-86.524385,38.018609],[-86.52465600000001,38.012894],[-86.525671,38.007145],[-86.525844,37.998385],[-86.524888,37.981834],[-86.525174,37.968228],[-86.523831,37.96216900000001],[-86.520503,37.954438],[-86.518575,37.951798],[-86.512588,37.94695],[-86.50939,37.942492],[-86.507043,37.936439],[-86.50662,37.930719],[-86.507831,37.928829],[-86.51100500000001,37.92612],[-86.51924,37.922163],[-86.5261487431668,37.9194534641524],[-86.528279,37.918618],[-86.534156,37.917007],[-86.540722,37.916871],[-86.548507,37.917842],[-86.566256,37.922164],[-86.580322,37.923145],[-86.586542,37.922285],[-86.588581,37.921159],[-86.596125,37.914289],[-86.598452,37.910965],[-86.599848,37.906754],[-86.600096,37.901218],[-86.598151,37.884553],[-86.598317,37.88042],[-86.59939,37.874753],[-86.597476,37.871478],[-86.59732,37.870162],[-86.598108,37.867382],[-86.6038148967581,37.8594032048087],[-86.60462400000002,37.858272],[-86.609163,37.855408],[-86.615215,37.852857],[-86.625763,37.847266],[-86.63350637894142,37.844152448124305],[-86.634271,37.843845],[-86.638265,37.842718],[-86.648028,37.84142500000001],[-86.652516,37.841636],[-86.655296,37.84250800000001],[-86.658268,37.844144],[-86.661637,37.849714],[-86.662495,37.856951],[-86.661233,37.862761],[-86.658374,37.869376],[-86.648727,37.886036],[-86.644754,37.894806],[-86.644039,37.898202],[-86.644143,37.902366],[-86.645513,37.906529],[-86.647081,37.908621],[-86.650087,37.910616000000005],[-86.660888,37.913059],[-86.6723718050343,37.9148018918916],[-86.673038,37.91490300000001],[-86.680929,37.91501],[-86.686015,37.913084],[-86.691994,37.908529],[-86.7034578058958,37.9011661384456],[-86.707816,37.898367],[-86.7121032973324,37.8961548328833],[-86.716138,37.894073],[-86.718462,37.893123],[-86.7203395361113,37.8928873778988],[-86.722247,37.892648],[-86.73146,37.89434],[-86.734718,37.896587],[-86.7376723613574,37.899547534433],[-86.745607294933,37.9074990478846],[-86.75099,37.912893],[-86.7552650621038,37.9189637499331],[-86.7566307792954,37.9209031200166],[-86.764734,37.932410000000004],[-86.7654114883351,37.933478990319],[-86.7740298475009,37.9470776635897],[-86.7747057908868,37.9481442161756],[-86.775508,37.94941],[-86.7761873592092,37.950342943484],[-86.7771746198279,37.9516987186745],[-86.779915,37.955462],[-86.77856900000002,37.957298],[-86.7792602006089,37.9583780321878],[-86.781335,37.96162],[-86.787168,37.968801000000006],[-86.790509,37.980046],[-86.7938,37.986541],[-86.79551,37.989453],[-86.8001364864678,37.9912892733541],[-86.803134,37.992479],[-86.8049254847857,37.9935547199427],[-86.8050595014089,37.99363519193741],[-86.810913,37.99715],[-86.8134847074746,37.998170059441605],[-86.8146776831273,37.9986432493709],[-86.815267,37.998877],[-86.820071,37.999392],[-86.823491,37.998939],[-86.835161,37.99375],[-86.849027,37.99002],[-86.85595,37.987292],[-86.863224,37.982495],[-86.869029,37.976894],[-86.875874,37.97077],[-86.879364,37.969268],[-86.88648,37.963069],[-86.89029,37.957426],[-86.901983,37.946448],[-86.9072606023925,37.9433267676648],[-86.909318,37.94211],[-86.917949,37.93724],[-86.925825,37.935109],[-86.933357,37.934939],[-86.944633,37.933534],[-86.964785,37.932384],[-86.968004,37.932996],[-86.9788339203536,37.9302314188525],[-86.978957,37.9302],[-87.003301,37.922395],[-87.012373,37.918708],[-87.018056338731,37.9154630229968],[-87.034166,37.906265],[-87.0366847688098,37.9041439757396],[-87.04016300000002,37.901215],[-87.045205,37.894332],[-87.046146,37.89154],[-87.04596103140071,37.8886289465676],[-87.045894,37.887574],[-87.0456413586135,37.8869713733236],[-87.04422,37.88358100000001],[-87.043407,37.87994],[-87.0430847840289,37.875537881803105],[-87.043049,37.875049],[-87.042944,37.87181],[-87.04328500000001,37.868552],[-87.04751,37.858753],[-87.051555,37.845614],[-87.0544639965975,37.8353177804909],[-87.056664,37.827531],[-87.05958,37.822203],[-87.062069,37.814177],[-87.0680508401788,37.8042172282376],[-87.069675,37.801513],[-87.0771322674786,37.795611021309206],[-87.079044,37.794098],[-87.089279,37.787862],[-87.096034,37.785259],[-87.0986180957718,37.7847576778271],[-87.0992227835601,37.7846403666193],[-87.1096485299931,37.7826177411761],[-87.1096552982481,37.7826164281147],[-87.111008,37.782354],[-87.118594,37.782816],[-87.1227074036583,37.7838775589372],[-87.126088,37.78475],[-87.1280942407451,37.7858026956521],[-87.12892291053711,37.786237507421],[-87.129629,37.786608],[-87.134204,37.792943],[-87.13398,37.795116],[-87.135388,37.797845],[-87.135476,37.801878],[-87.13704100000001,37.807187],[-87.141506,37.816317],[-87.1435192873831,37.8190171242391],[-87.1480303946521,37.8250672044136],[-87.152163798069,37.8306107263418],[-87.153486,37.832384],[-87.156263,37.835927],[-87.162319,37.840159],[-87.164747,37.841353],[-87.17036,37.842197],[-87.175836,37.841017],[-87.203869,37.844489],[-87.211752,37.846599],[-87.220342,37.849081],[-87.234595,37.857223],[-87.249479,37.864989],[-87.256469,37.868398],[-87.267977,37.877434],[-87.2690218582973,37.8779740345985],[-87.27317,37.880118],[-87.280416,37.885642],[-87.298315,37.895923],[-87.3029438543916,37.897706665082],[-87.30439800000002,37.898267],[-87.319754,37.905524],[-87.333539,37.908338],[-87.335856,37.907403],[-87.344933,37.911164],[-87.352738,37.916091],[-87.356336,37.919722],[-87.357765,37.920367],[-87.361368,37.920816],[-87.363674,37.922241],[-87.370522,37.928234],[-87.37341,37.931158],[-87.3734420139054,37.9319613256738],[-87.373453,37.932237],[-87.385434,37.93767],[-87.3911709858664,37.9390617246254],[-87.3914258605376,37.9391235541931],[-87.395789,37.940182],[-87.3968268754731,37.9405845006293],[-87.402238,37.942683],[-87.4034219148486,37.9428998784214],[-87.4043760424456,37.9430746626867],[-87.413325,37.944714],[-87.4140740956266,37.9446865991254],[-87.4232118665683,37.9443523521928],[-87.424151,37.944318],[-87.428307,37.945047],[-87.43780100000001,37.944223],[-87.447786,37.942427],[-87.450458,37.941451],[-87.4511705981016,37.941083673096],[-87.465514,37.93369],[-87.4696538579815,37.9308956203124],[-87.480680431065,37.9234527486037],[-87.482446,37.922261],[-87.49689,37.911167],[-87.5053632307904,37.9076178897369],[-87.507483,37.90673],[-87.511499,37.906426],[-87.520284,37.912618],[-87.531532,37.916298],[-87.5481476547484,37.923972589582505],[-87.5484748132874,37.924123700541],[-87.551277,37.925418],[-87.556567,37.928606],[-87.56207,37.933291],[-87.568297,37.940633],[-87.572146,37.946634],[-87.5731215255493,37.9499824797469],[-87.5731926441876,37.95022659362],[-87.573605,37.951642],[-87.576988,37.952287],[-87.574494,37.957212],[-87.5741,37.962108],[-87.575330706564,37.9663916747808],[-87.575729,37.967778],[-87.579181,37.971533],[-87.584545,37.974657],[-87.5881448339956,37.9751925722356],[-87.590023,37.975472],[-87.596171,37.97486],[-87.60070572015,37.9718749083944],[-87.601573,37.971304],[-87.603298,37.967287],[-87.6033055482805,37.966929680723],[-87.603446,37.960281],[-87.60559,37.950144],[-87.607905,37.946974],[-87.6106068683066,37.9448311007613],[-87.615228,37.941166],[-87.619049,37.938517000000004],[-87.617615,37.937062],[-87.618734,37.933928],[-87.621411,37.931315],[-87.6233895965015,37.9304473472758],[-87.625274,37.929621],[-87.627892,37.922253],[-87.625592,37.916028],[-87.62244500000001,37.912115],[-87.62079500000002,37.907676],[-87.61179,37.901404],[-87.60770700000002,37.899361],[-87.601967,37.895722],[-87.597118,37.892394],[-87.5889734299629,37.886242102656105],[-87.587141,37.884858],[-87.5842316502495,37.8790649410668],[-87.583737,37.878080000000004],[-87.583925,37.872485],[-87.586304,37.872493],[-87.586392,37.870542],[-87.588036,37.868984],[-87.589202,37.863745],[-87.590468,37.863126],[-87.591457,37.860369],[-87.590274,37.85858000000001],[-87.596083,37.85116],[-87.597859,37.847737],[-87.5992109034825,37.8466504981548],[-87.6009,37.845293],[-87.606599,37.838669],[-87.6071761688786,37.838190683797],[-87.612426,37.83384],[-87.615004146984,37.8322218290373],[-87.615399,37.831974],[-87.625014,37.829077],[-87.635806,37.827015],[-87.6363390299211,37.8269558215885],[-87.63740264838431,37.8268377358141],[-87.645858,37.825899],[-87.655171,37.826037],[-87.666522,37.827455],[-87.672397,37.829127],[-87.675538,37.831732],[-87.679188,37.836321],[-87.680689,37.84062],[-87.6819,37.846410000000006],[-87.681633,37.855917],[-87.6754,37.865946],[-87.666817,37.879851],[-87.664382,37.886736],[-87.664331,37.88907],[-87.665259,37.89285100000001],[-87.66684,37.895763],[-87.671762,37.899802],[-87.679131,37.902951],[-87.6834,37.903599],[-87.6846367405856,37.9034129296844],[-87.687049,37.90305],[-87.70071193890091,37.8977573894514],[-87.710675,37.893898],[-87.723635,37.892058],[-87.7278121481949,37.8930468582587],[-87.7333,37.894346],[-87.738125,37.894698],[-87.7559169486231,37.8918189709557],[-87.762591,37.890739],[-87.781728,37.878815],[-87.786407,37.876556],[-87.795185,37.875273],[-87.807541,37.875234],[-87.8157324055603,37.8756728252979],[-87.829773,37.876425],[-87.83886,37.880171],[-87.846443,37.887992],[-87.846489,37.893534],[-87.857243,37.90064900000001],[-87.861659,37.909475],[-87.866094,37.915171],[-87.8715865018512,37.9201369169701],[-87.87254,37.920999],[-87.877325,37.924034],[-87.883321,37.926238],[-87.8884445823851,37.9271854427755],[-87.892471,37.92793],[-87.8943629277255,37.927789230560904],[-87.898062,37.927514],[-87.904789,37.924892],[-87.9065356712071,37.9231399718538],[-87.921744,37.90788500000001],[-87.92709372033471,37.9017041861826],[-87.927769,37.900924],[-87.932129,37.89732],[-87.936784,37.892587],[-87.9371701527905,37.892151021043],[-87.938365,37.890802],[-87.940069,37.88767],[-87.940839,37.883338],[-87.941021,37.879168],[-87.940005,37.87504400000001],[-87.938128,37.870651],[-87.936228,37.867937],[-87.927303,37.858709],[-87.914892,37.849618],[-87.910276,37.843416],[-87.90777300000002,37.83761100000001],[-87.903804,37.817762],[-87.904595,37.812526],[-87.90681,37.807624],[-87.911087,37.805158],[-87.919138,37.80212800000001],[-87.927543,37.799851],[-87.932554,37.797672],[-87.934936,37.79522],[-87.934698,37.791827],[-87.935861,37.789703],[-87.938598,37.787914],[-87.944506,37.775256],[-87.946463,37.773477],[-87.948594,37.772344],[-87.95259,37.771742],[-87.96003,37.773223],[-87.970262,37.781856],[-87.97180500000002,37.784648],[-87.976389,37.788004],[-87.984358,37.7918],[-87.987157,37.792202],[-87.991168,37.794049],[-87.993099,37.795756],[-87.997102,37.797672],[-88.004706,37.800145],[-88.015144,37.80193],[-88.02102100000002,37.801409],[-88.02803,37.799224],[-88.032438,37.796361],[-88.035827,37.791917],[-88.038769,37.784307],[-88.0402060006168,37.7759575073479],[-88.040873,37.772082],[-88.042602,37.76712],[-88.0433912442538,37.7657176398423],[-88.049942,37.754078],[-88.059588,37.742608],[-88.063802,37.738645],[-88.0715808518504,37.7338731516636],[-88.072538,37.733286],[-88.081925,37.730389],[-88.085901,37.728587],[-88.095759,37.723205],[-88.101844,37.718036],[-88.107088,37.71591500000001],[-88.1148844372575,37.7134905735938],[-88.117803,37.712583],[-88.1206176630752,37.7108132248661],[-88.122412,37.709685],[-88.125033,37.707094],[-88.1300914673022,37.70020540303901],[-88.132341,37.697142],[-88.1329439961855,37.695388620056],[-88.134282,37.691498],[-88.1374422123231,37.688973684059],[-88.145434,37.68259],[-88.15164600000001,37.675098],[-88.158207,37.664542],[-88.159372,37.66184700000001],[-88.16018700000001,37.657592],[-88.160062,37.654332],[-88.15864,37.649097],[-88.158374,37.639948],[-88.156827,37.632801],[-88.152691,37.622827],[-88.141747,37.602845],[-88.141671788091,37.5996927718447],[-88.141623,37.597648],[-88.142383,37.592432],[-88.140783,37.585217],[-88.136489,37.577307],[-88.134281,37.574636],[-88.1259071990372,37.5707299979816],[-88.122938,37.569345],[-88.1060472506387,37.5561992198153],[-88.103138,37.553935],[-88.09647,37.544891],[-88.092814,37.539637],[-88.088049,37.535124],[-88.086194,37.534186],[-88.078046,37.532029],[-88.072242,37.528826],[-88.069018,37.525297],[-88.06331100000001,37.515755],[-88.062568,37.513563],[-88.062828,37.508123],[-88.0613347550442,37.5053124718963],[-88.061292,37.505232],[-88.062563,37.495951],[-88.064115,37.492013],[-88.065218,37.489422],[-88.06647400000001,37.487822],[-88.067844,37.485867],[-88.069309,37.485185],[-88.071463,37.485945],[-88.073462,37.485294],[-88.07343,37.483606],[-88.07452,37.481275000000004],[-88.076599,37.479835],[-88.07959752476852,37.4758799191303],[-88.08176500000002,37.473021],[-88.085229,37.47154],[-88.089072,37.471631],[-88.090005,37.472037],[-88.092621,37.473658],[-88.099802,37.473573],[-88.109417,37.472369],[-88.12801,37.470507],[-88.132628,37.471555],[-88.135142,37.471626],[-88.1539383598637,37.4676050076463],[-88.157061,37.466937],[-88.1599909848301,37.4666729566143],[-88.171764,37.465612],[-88.1721229436943,37.4654261530517],[-88.175283,37.46379],[-88.188615,37.461896],[-88.206923,37.460188],[-88.2228934034547,37.45771770375],[-88.225012,37.45739],[-88.237784,37.456811],[-88.255193,37.456748],[-88.28166700000001,37.452596],[-88.297821,37.446816],[-88.312585,37.440591],[-88.3133922093058,37.4398699039136],[-88.317525,37.436178],[-88.321199,37.434705],[-88.3213061773812,37.4346437054115],[-88.330622,37.429316],[-88.333183,37.42721],[-88.33487862716271,37.4253737946294],[-88.3421543108983,37.4174949107313],[-88.348405,37.410726],[-88.358436,37.40486],[-88.3585049068255,37.4048174106804],[-88.360633757725,37.4035016293971],[-88.361557,37.402931],[-88.365471,37.401663],[-88.371214,37.40273],[-88.373445,37.404342],[-88.377507,37.409825],[-88.387669,37.416482],[-88.3963748693168,37.421128851144],[-88.39734,37.421644],[-88.404127,37.424146],[-88.408808,37.425216],[-88.413108,37.424468],[-88.4152637088206,37.4234930977791],[-88.418594,37.421987],[-88.425981,37.419441],[-88.433182,37.418169],[-88.439333,37.416416],[-88.450127,37.411717],[-88.456,37.408482],[-88.465861,37.400547],[-88.470224,37.396255],[-88.476592,37.386875],[-88.478523,37.375052],[-88.4800642954345,37.3705710806545],[-88.4809843598542,37.3678962304184],[-88.482113,37.364615],[-88.482612,37.354915],[-88.482903806475,37.3534471345644],[-88.484462,37.345609],[-88.486947,37.339596],[-88.49031,37.335042],[-88.494137,37.32768900000001],[-88.500566,37.317822],[-88.505087,37.307858],[-88.508657,37.303353],[-88.511497,37.298527],[-88.51466100000002,37.29094800000001],[-88.515939,37.284043],[-88.509587,37.273398],[-88.506942,37.266656],[-88.509328,37.26213],[-88.508031,37.260261],[-88.500777,37.253579],[-88.492383,37.248445],[-88.48727700000002,37.244077],[-88.48498200000002,37.240774],[-88.47973,37.229606],[-88.478179,37.227251],[-88.471753,37.220155],[-88.466981,37.217026],[-88.458763,37.213536],[-88.450653,37.207046],[-88.447764,37.203527],[-88.441956,37.189036],[-88.439527,37.18174],[-88.437781,37.180007],[-88.433454,37.165871],[-88.43378200000001,37.16407],[-88.431488,37.160298],[-88.429906,37.158668],[-88.428097,37.157758],[-88.424403,37.152428],[-88.4246186318314,37.1509671376999],[-88.424776,37.149901],[-88.434701,37.126424],[-88.435829,37.125055],[-88.443538,37.109192],[-88.440912,37.107637],[-88.444659,37.100512],[-88.444767,37.095256],[-88.44938,37.087608],[-88.4541109862298,37.0819927488213],[-88.460594,37.074298],[-88.48218,37.067368],[-88.490145,37.068311],[-88.4904732961543,37.0682476376822],[-88.504295,37.06558],[-88.51435600000002,37.065231000000004],[-88.521436,37.065584],[-88.531576,37.067192],[-88.545869,37.070567],[-88.564624,37.077192],[-88.5664745586981,37.075778390376],[-88.566839,37.0755],[-88.573249,37.08000100000001],[-88.5739458397627,37.0829093964796],[-88.574245,37.084158],[-88.583792,37.092],[-88.5840105578256,37.0922702534498],[-88.5845669375762,37.0929582340635],[-88.589453,37.099],[-88.593922,37.101761],[-88.6005551465309,37.1066472281286],[-88.601144,37.10708100000001],[-88.6055878046259,37.1095256104702],[-88.61144,37.112745],[-88.6214002922599,37.1173725480615],[-88.625889,37.119458],[-88.6273488637496,37.1199362632513],[-88.6273517290102,37.119937201934],[-88.630605,37.121003],[-88.6307840925857,37.1210104338485],[-88.6308124946163,37.1210116127717],[-88.6308922645825,37.1210149238961],[-88.637977,37.121309],[-88.644872,37.122844],[-88.6763005150352,37.134958210691],[-88.6853929372997,37.1384629107661],[-88.687767,37.139378],[-88.693983,37.141155],[-88.702553,37.142646],[-88.7136739784753,37.1413841833601],[-88.720224,37.140641],[-88.7205538111622,37.1406977119318],[-88.72344,37.141194],[-88.72679166749,37.1422623561001],[-88.732105,37.143956],[-88.7337685391864,37.1446853672324],[-88.7379036305877,37.1464983694123],[-88.737937,37.146513],[-88.7401780020677,37.147905630591],[-88.7424473231472,37.1493158595247],[-88.746065,37.151564],[-88.74789217953611,37.1523824866778],[-88.753068,37.154701],[-88.765357,37.162662],[-88.77595,37.16878],[-88.779466,37.172495],[-88.7836996235341,37.1759408673572],[-88.786947,37.178584],[-88.7896603083628,37.1802157325374],[-88.797373,37.184854],[-88.80572,37.188595],[-88.820935,37.192203],[-88.8216368909374,37.1924159639335],[-88.8303483717752,37.1950591541027],[-88.835051,37.196486],[-88.8401180851749,37.198429565690404],[-88.8500217185648,37.20222827074511],[-88.86953000000001,37.209711],[-88.903906,37.220073],[-88.91618,37.223991],[-88.922991,37.224906],[-88.9279411539598,37.2261636574322],[-88.934063,37.227719],[-88.9343702089934,37.2250870633023],[-88.934405,37.224789],[-88.953154,37.224811],[-88.966022,37.226343],[-88.96946,37.228279],[-88.974711,37.229708],[-88.98326,37.228685],[-88.9923554038776,37.2264845984746],[-89.000968,37.224401],[-89.005934,37.22188],[-89.014003,37.21609],[-89.029981,37.211144],[-89.037568,37.203932],[-89.041263,37.202881],[-89.0437217414644,37.2008120393473],[-89.058036,37.188767],[-89.062751111589,37.1852298236295],[-89.0643405779316,37.1840374398052],[-89.076221,37.175125],[-89.085239498632,37.1667908745781],[-89.086526,37.165602],[-89.0872194256509,37.1646104489327],[-89.092934,37.156439],[-89.095753,37.150391],[-89.096669,37.1462],[-89.0973301630406,37.1447450520642],[-89.099047,37.140967],[-89.103592,37.13212300000001],[-89.11069,37.122049],[-89.120465,37.113487],[-89.1211494292365,37.1127926170498],[-89.125072,37.108813],[-89.142852,37.099019],[-89.14746,37.098906],[-89.150553,37.09376],[-89.14711100000001,37.091628],[-89.14967,37.090013],[-89.15243800000002,37.090035],[-89.1541688780619,37.0887942773358],[-89.155655,37.087729],[-89.1670314081797,37.0753652089031],[-89.168087,37.074218],[-89.171880551089,37.0681839790285],[-89.175725,37.062069],[-89.17938400000001,37.053012],[-89.181369,37.046305],[-89.182509,37.037275],[-89.180849,37.026843],[-89.1806393419141,37.0261812456894],[-89.1794500540786,37.0224274369664],[-89.178975,37.020928],[-89.173595,37.011409],[-89.17285125298142,37.0104062186663],[-89.17112,37.008072],[-89.166447,37.003337],[-89.160667,37.000051],[-89.1481423804501,36.991621249316],[-89.138437,36.985089],[-89.132685,36.9822],[-89.128868,36.983265],[-89.125069,36.983499],[-89.1183,36.981879],[-89.11503,36.980335],[-89.109498,36.976563],[-89.102879,36.9697],[-89.099594,36.964543],[-89.0992373869605,36.9626268883705],[-89.099007,36.961389],[-89.09884300000002,36.95785],[-89.1007620066847,36.9440018170751],[-89.100766,36.943973],[-89.10213700000001,36.93915400000001],[-89.109377,36.920066],[-89.11756700000001,36.887356],[-89.119813,36.882792],[-89.1222278026127,36.8790346666852],[-89.1249032259685,36.8748718182383],[-89.126702,36.872073],[-89.131944,36.857437],[-89.137969,36.847349],[-89.14767400000001,36.847148],[-89.153513,36.8466],[-89.15733,36.843305],[-89.159466,36.842505],[-89.166841,36.842529],[-89.1704,36.841522],[-89.173419,36.839806],[-89.17717700000001,36.835779],[-89.178153,36.834586],[-89.178888,36.831368000000005],[-89.178574,36.816554],[-89.179229,36.812915],[-89.178749,36.809928],[-89.177417,36.807269],[-89.1763059536454,36.8056675390447],[-89.1750594639371,36.8038708501929],[-89.171069,36.798119],[-89.168458,36.795571],[-89.160877,36.790914],[-89.155891,36.789126],[-89.144208,36.788353],[-89.13321,36.788228],[-89.128923,36.787677],[-89.12353,36.785309],[-89.1234809771075,36.7852576789117],[-89.120437,36.782071],[-89.116847,36.77560700000001],[-89.116067,36.772423],[-89.116563,36.767557],[-89.119198,36.759802],[-89.12243,36.754844],[-89.126134,36.751735],[-89.130399,36.751702],[-89.135518,36.751956],[-89.142313,36.755369],[-89.151756,36.756264],[-89.15699,36.755968],[-89.166888,36.759633],[-89.169106,36.759473],[-89.1748307635801,36.7576407904856],[-89.1749561616581,36.7576006568542],[-89.179545,36.756132],[-89.184523,36.753638],[-89.191553,36.747217],[-89.197808,36.739412],[-89.199798,36.734217],[-89.201047,36.725772],[-89.200732,36.720141],[-89.19948,36.716045],[-89.19604,36.712017],[-89.184356,36.701238],[-89.174836,36.69396],[-89.169522,36.688878],[-89.168016,36.685514],[-89.167961,36.678189],[-89.16946700000001,36.674596],[-89.171882,36.672526],[-89.168723,36.671892],[-89.15908,36.666352],[-89.164601,36.660132],[-89.1655050366397,36.6592657652868],[-89.1746818752528,36.6504726524698],[-89.174741,36.650416],[-89.18332100000002,36.644694],[-89.18774900000001,36.641115],[-89.192542,36.635997],[-89.197654,36.628936],[-89.199136,36.625649],[-89.200902,36.618177],[-89.202607,36.601576],[-89.213563,36.580119],[-89.217447,36.576159],[-89.2201846177656,36.5742777197202],[-89.227319,36.569375],[-89.236542,36.566824],[-89.25831800000002,36.564948],[-89.259994,36.565149],[-89.268057,36.56890800000001],[-89.27171,36.571387],[-89.278935,36.577699],[-89.294637,36.59372900000001],[-89.301502,36.604138],[-89.313405,36.62012],[-89.318154,36.625059],[-89.326731,36.632186],[-89.3275887217666,36.6321935043326],[-89.334046,36.63225],[-89.343753,36.630991],[-89.35651,36.628439],[-89.365548,36.625059],[-89.371002,36.62084],[-89.375453,36.615719],[-89.376367,36.613868],[-89.378012,36.608096],[-89.380643,36.59113],[-89.382762,36.583603],[-89.395909,36.559649],[-89.396627,36.55642900000001],[-89.396811,36.551975],[-89.398685,36.542329],[-89.405654,36.528165],[-89.41727500000002,36.499011]]]}}]}